"Species";"Latitude";"Longitude";"Locality";"Country";"Diagnosis";"Confidence";"Reference";"Coord_Method";"Coord_Method_Name";"Issues"
"Mastomys natalensis";-15.15;13.3667;"Tchivinguiro";"Angola";"morpho";"high";"BeBIF Provider";"NA";;
"Mastomys natalensis";-14.5;13.5;"Biballa";"Angola";"morpho";"high";"BeBIF Provider";"NA";;
"Mastomys natalensis";-13.35;13.8;"Chongoroi";"Angola";"morpho";"high";"BeBIF Provider";"NA";;
"Mastomys natalensis";7;1.95;"Adjassagon (= Adiassagon)";"Benin";"morpho + PCR cytb";"high";"Durnez, pers. com";"NA";;
"Mastomys natalensis";7.25;2.45;"Agonve ";"Benin";"morpho + PCR cytb";"high";"Durnez, pers. com";"NA";;
"Mastomys natalensis";6.81;2.37;"Ahozonnoude ";"Benin";"morpho + PCR cytb";"high";"Durnez, pers. com";"NA";;
"Mastomys natalensis";6.74;2.38;"Sedje Houegoudo (=Sedje)";"Benin";"morpho + PCR cytb";"high";"Durnez, pers. com";"NA";;
"Mastomys natalensis";6.92;2.17;"La Lama";"Benin";"morpho + PCR cytb";"high";"Nicolas, pers. com";"NA";;
"Mastomys natalensis";9.05;2.23;"Terou";"Benin";"morpho + PCR cytb";"high";"Nicolas, pers. com";"NA";;
"Mastomys natalensis";9.03;2.05;"Wannou";"Benin";"morpho + PCR cytb";"high";"Nicolas, pers. com";"NA";;
"Mastomys natalensis";6.98;2.15;"Koto";"Benin";"morpho + PCR cytb";"high";"Duplantier et al. 2009";"NA";;
"Mastomys natalensis";7.1;1.86;"Lanta";"Benin";"morpho + PCR cytb";"high";"Duplantier et al. 2009";"NA";;
"Mastomys natalensis";11.4;2.2;"Mekrou";"Benin";"morpho + PCR cytb";"high";"Duplantier et al. 2009";"NA";;
"Mastomys natalensis";10.73;1.38;"Tianwakassa";"Benin";"morpho + PCR cytb";"high";"Duplantier et al. 2009";"NA";;
"Mastomys natalensis";10.71;1.22;"Tiele";"Benin";"morpho + PCR cytb";"high";"Duplantier et al. 2009";"NA";;
"Mastomys natalensis";7.13;2.45;"Houedja";"Benin";"morpho";"low";"Durnez, pers. com";"NA";;
"Mastomys natalensis";-19.17;23.38;"Moremi game reserve";"Botswana";"morpho + PCR cytb";"high";"BeBIF Provider";"NA";;
"Mastomys natalensis";-21.303869;24.764229;"Dow lake";"Botswana";"morpho";"low";"BeBIF Provider";"NA";"http://earth-info.nga.mil/gns/html/namefiles.htm";
"Mastomys natalensis";-20.33;23.82;"Gué Makalamabedi";"Botswana";"morpho";"low";"BeBIF Provider";"NA";;
"Mastomys natalensis";-18.3;21.8;"Mohembo";"Botswana";"morpho";"low";"BeBIF Provider";"NA";;
"Mastomys natalensis";-21.05;24.42;"Rakops";"Botswana";"morpho";"low";"BeBIF Provider";"NA";;
"Mastomys natalensis";-18.67;24.5;"Saile camp. Chobe";"Botswana";"morpho";"low";"BeBIF Provider";"NA";;
"Mastomys natalensis";-18.62;24.07;"Savuti channel bridge";"Botswana";"morpho";"low";"BeBIF Provider";"NA";;
"Mastomys natalensis";-20.15;22.45;"Tsau";"Botswana";"morpho";"low";"BeBIF Provider";"NA";;
"Mastomys natalensis";11.2167;-4.4333;"Nasso";"Burkina Faso";"morpho + chrom";"high";"Tervuren Museum";"NA";;
"Mastomys natalensis";14.63;0.03;"Markoye";"Burkina Faso";"morpho + PCR cytb";"high";"Duplantier et al. 2009";"NA";;
"Mastomys natalensis";11.73;-4.13;"Bossora-Daga";"Burkina Faso";"morpho + PCR cytb";"high";"Duplantier et al. 2009";"NA";;
"Mastomys natalensis";10.7;-4.81;"Karfiguela";"Burkina Faso";"morpho + PCR cytb";"high";"Duplantier et al. 2009";"NA";;
"Mastomys natalensis";11.18;-1.63;"Nazinga";"Burkina Faso";"morpho + PCR cytb";"high";"Duplantier et al. 2009";"NA";;
"Mastomys natalensis";13.13;-3.46;"Toma-île";"Burkina Faso";"morpho + PCR cytb";"high";"Duplantier et al. 2009";"NA";;
"Mastomys natalensis";11.1;-4.23;"Koro";"Burkina Faso";"morpho + PCR cytb";"high";"Duplantier et al. 2009";"NA";;
"Mastomys natalensis";11.61;-4.8;"Kourouma";"Burkina Faso";"morpho + PCR cytb";"high";"Duplantier et al. 2009";"NA";;
"Mastomys natalensis";12.35;-1.53;"Ouagadougou";"Burkina Faso";"morpho + PCR cytb";"high";"Duplantier et al. 2009";"NA";;
"Mastomys natalensis";11;0.98;"Pendjari";"Burkina Faso";"morpho + PCR cytb";"high";"Duplantier et al. 2009";"NA";;
"Mastomys natalensis";12.33;-1.35;"Pissy";"Burkina Faso";"morpho + PCR cytb";"high";"Duplantier et al. 2009";"NA";;
"Mastomys natalensis";11.9;1.86;"Ponougou";"Burkina Faso";"morpho + PCR cytb";"high";"Duplantier et al. 2009";"NA";;
"Mastomys natalensis";11.86;1.86;"Tansanga";"Burkina Faso";"morpho + PCR cytb";"high";"Duplantier et al. 2009";"NA";;
"Mastomys natalensis";12.12;1.76;"Tapoa";"Burkina Faso";"morpho + PCR cytb";"high";"Duplantier et al. 2009";"NA";;
"Mastomys natalensis";11.76;1.7;"Yobri";"Burkina Faso";"morpho + PCR cytb";"high";"Duplantier et al. 2009";"NA";;
"Mastomys natalensis";10.85;-4.1;"Dounonso";"Burkina Faso";"morpho + PCR cytb";"high";"Duplantier et al. 2009";"NA";;
"Mastomys natalensis";11.5333;-0.4833;"Bagre";"Burkina Faso";"morpho";"low";"BeBIF Provider";"NA";;
"Mastomys natalensis";12.3167;-1.7;"Bazoulle";"Burkina Faso";"morpho";"low";"BeBIF Provider";"NA";;
"Mastomys natalensis";11.2;-4.3;"Bobodioulasso";"Burkina Faso";"morpho";"low";"BeBIF Provider";"NA";;
"Mastomys natalensis";10.6167;-5.15;"Douna";"Burkina Faso";"morpho";"low";"BeBIF Provider";"NA";;
"Mastomys natalensis";12.25;-1.3833;"Mogtedo";"Burkina Faso";"morpho";"low";"BeBIF Provider";"NA";;
"Mastomys natalensis";10.2833;-4.9167;"Niangoloko";"Burkina Faso";"morpho";"low";"BeBIF Provider";"NA";;
"Mastomys natalensis";13.1667;-2.0833;"Rima";"Burkina Faso";"morpho";"low";"BeBIF Provider";"NA";;
"Mastomys natalensis";-3.7;29.5667;"Tora";"Burundi";"morpho + chrom";"high";"Tervuren Museum";"NA";;
"Mastomys natalensis";-3.5333;29.65;"Kisozi station";"Burundi";"morpho";"low";"BeBIF Provider";"NA";;
"Mastomys natalensis";-3.4833;29;"Uvira usumbura";"Burundi";"morpho";"low";"BeBIF Provider";"NA";;
"Mastomys natalensis";-3.2;29.3;"Imbo";"Burundi";"morpho";"low";"BeBIF Provider";"NA";;
"Mastomys natalensis";10.62;14.42;"Kongola";"Cameroon";"morpho + chrom + PCR cytb";"high";"Dobigny et al. 2008";"NA";;
"Mastomys natalensis";8.3833;14.5167;"Koum";"Cameroon";"morpho + chrom";"high";"Tervuren Museum";"NA";;
"Mastomys natalensis";10.87;14.93;"Maga";"Cameroon";"morpho + chrom + PCR cytb";"high";"Dobigny et al. 2008";"NA";;
"Mastomys natalensis";12.5;14.6;"Yik";"Cameroon";"morpho + chrom + PCR cytb";"high";"Dobigny et al. 2008";"NA";;
"Mastomys natalensis";3.1667;12.3333;"Bitye riv ja";"Cameroon";"morpho";"low";"BeBIF Provider";"NA";;
"Mastomys natalensis";7.1167;14.3167;"Djerkoka";"Cameroon";"morpho";"low";"BeBIF Provider";"NA";;
"Mastomys natalensis";6.8333;14.7;"Djohong";"Cameroon";"morpho";"low";"BeBIF Provider";"NA";;
"Mastomys natalensis";3.3833;11.4667;"Ebogo";"Cameroon";"morpho";"low";"BeBIF Provider";"NA";;
"Mastomys natalensis";3.8;10.1333;"Edea";"Cameroon";"morpho";"low";"BeBIF Provider";"NA";;
"Mastomys natalensis";7.1;12.4833;"Galim";"Cameroon";"morpho";"low";"BeBIF Provider";"NA";;
"Mastomys natalensis";10.5;15.2;"Gueme";"Cameroon";"morpho";"low";"BeBIF Provider";"NA";;
"Mastomys natalensis";8.4167;14.6667;"Isiri";"Cameroon";"morpho";"low";"BeBIF Provider";"NA";;
"Mastomys natalensis";8.3833;14.35;"Kali";"Cameroon";"morpho";"low";"BeBIF Provider";"NA";;
"Mastomys natalensis";4.6667;14.5833;"Kombetiko";"Cameroon";"morpho";"low";"BeBIF Provider";"NA";;
"Mastomys natalensis";10.8667;13.8833;"Koza";"Cameroon";"morpho";"low";"BeBIF Provider";"NA";;
"Mastomys natalensis";6.3333;12.8;"Mbakaou";"Cameroon";"morpho";"low";"BeBIF Provider";"NA";;
"Mastomys natalensis";4.2333;13.9833;"Mieri";"Cameroon";"morpho";"low";"BeBIF Provider";"NA";;
"Mastomys natalensis";10.6167;13.5667;"Mogode";"Cameroon";"morpho";"low";"BeBIF Provider";"NA";;
"Mastomys natalensis";10.75;13.8;"Mokolo";"Cameroon";"morpho";"low";"BeBIF Provider";"NA";;
"Mastomys natalensis";4.2667;14.0333;"Ngelebak";"Cameroon";"morpho";"low";"BeBIF Provider";"NA";;
"Mastomys natalensis";4.05;11.55;"Nkometou";"Cameroon";"morpho";"low";"BeBIF Provider";"NA";;
"Mastomys natalensis";5.7;10.6833;"Nkounden";"Cameroon";"morpho";"low";"BeBIF Provider";"NA";;
"Mastomys natalensis";10.7167;13.6833;"Sir";"Cameroon";"morpho";"low";"BeBIF Provider";"NA";;
"Mastomys natalensis";7.1667;14.3;"Tello";"Cameroon";"morpho";"low";"BeBIF Provider";"NA";;
"Mastomys natalensis";9.0833;12.9667;"Touroua";"Cameroon";"morpho";"low";"BeBIF Provider";"NA";;
"Mastomys natalensis";11.4167;14.5667;"Waza";"Cameroon";"morpho";"low";"BeBIF Provider";"NA";;
"Mastomys natalensis";10.3333;15.2333;"Yagoua";"Cameroon";"morpho";"low";"BeBIF Provider";"NA";;
"Mastomys natalensis";5.17;18.18;"Bozo";"CAR";"morpho + Lassa IFA (neg)";"low";"Gonzalez et al. 1983";"NA";;
"Mastomys natalensis";4.2;18.5;"Botambi";"CAR";"morpho + Lassa IFA (neg)";"low";"Gonzalez et al. 1983";"NA";;
"Mastomys natalensis";4.6;18.32;"Bouboui";"CAR";"morpho + Lassa IFA (neg)";"low";"Gonzalez et al. 1983";"NA";;
"Mastomys natalensis";4.57;18.18;"Gomoka";"CAR";"morpho + Lassa IFA (neg)";"low";"Gonzalez et al. 1983";"NA";;
"Mastomys natalensis";13.46;14.71;"Bol";"Chad";"morpho + chrom";"high";"Granjon & Dobigny 2003";"NA";;
"Mastomys natalensis";12.83;14.78;"Karal";"Chad";"morpho + chrom + PCR cytb";"high";"Dobigny et al. 2008";"NA";;
"Mastomys natalensis";13.06;15.55;"Boltram";"Chad";"morpho + PCR cytb";"high";"Lecompte et al. 2005";"NA";;
"Mastomys natalensis";9.27;14.68;"Doué";"Chad";"morpho + PCR cytb";"high";"Duplantier et al. 2009";"NA";;
"Mastomys natalensis";11.98;18.03;"Mataya";"Chad";"morpho + PCR cytb";"high";"Duplantier et al. 2009";"NA";;
"Mastomys natalensis";-4.259167;15.284722;"Brazzaville";"Congo";;"low";;"NA";"http://earth-info.nga.mil/gns/html/namefiles.htm";
"Mastomys natalensis";-0.0667;25.2833;"Amadjabe";"Congo Kinshasa";"morpho";"high";"BeBIF Provider";"NA";;
"Mastomys natalensis";1.3;27.5833;"Avakubi";"Congo Kinshasa";"morpho";"high";"BeBIF Provider";"NA";;
"Mastomys natalensis";0.8333;25.25;"Badumbi";"Congo Kinshasa";"morpho";"high";"BeBIF Provider";"NA";;
"Mastomys natalensis";2.1667;27.65;"Bafwaboka";"Congo Kinshasa";"morpho";"high";"BeBIF Provider";"NA";;
"Mastomys natalensis";0.7167;27.35;"Bafwadi";"Congo Kinshasa";"morpho";"high";"BeBIF Provider";"NA";;
"Mastomys natalensis";3.3667;25.7333;"Bambesa";"Congo Kinshasa";"morpho";"high";"BeBIF Provider";"NA";;
"Mastomys natalensis";1.55;25.3833;"Banalia";"Congo Kinshasa";"morpho";"high";"BeBIF Provider";"NA";;
"Mastomys natalensis";-2.8333;18.4;"Bokoro";"Congo Kinshasa";"morpho";"high";"BeBIF Provider";"NA";;
"Mastomys natalensis";-0.75;22.4167;"Bokungu";"Congo Kinshasa";"morpho";"high";"BeBIF Provider";"NA";;
"Mastomys natalensis";1.5;21.05;"Bongandanga lopori";"Congo Kinshasa";"morpho";"high";"BeBIF Provider";"NA";;
"Mastomys natalensis";1.45;27.6167;"Bosabangi";"Congo Kinshasa";"morpho";"high";"BeBIF Provider";"NA";;
"Mastomys natalensis";-9.5833;25.8667;"Bukama school";"Congo Kinshasa";"morpho";"high";"BeBIF Provider";"NA";;
"Mastomys natalensis";2.7833;24.8333;"Buta";"Congo Kinshasa";"morpho";"high";"BeBIF Provider";"NA";;
"Mastomys natalensis";3.1667;19.25;"Bwamanda";"Congo Kinshasa";"morpho";"high";"BeBIF Provider";"NA";;
"Mastomys natalensis";-9.8333;25.5333;"Funda biabo";"Congo Kinshasa";"morpho";"high";"BeBIF Provider";"NA";;
"Mastomys natalensis";0.8667;27.5667;"Fundi";"Congo Kinshasa";"morpho";"high";"BeBIF Provider";"NA";;
"Mastomys natalensis";-5.8833;22.4333;"Hemptinne st benoit luluabourg";"Congo Kinshasa";"morpho";"high";"BeBIF Provider";"NA";;
"Mastomys natalensis";-10.9667;26.7833;"Jadotville";"Congo Kinshasa";"morpho";"high";"BeBIF Provider";"NA";;
"Mastomys natalensis";-6.3333;26.9167;"Kabalo";"Congo Kinshasa";"morpho";"high";"BeBIF Provider";"NA";;
"Mastomys natalensis";-8.0167;23.0167;"Kabuya mwadia";"Congo Kinshasa";"morpho";"high";"BeBIF Provider";"NA";;
"Mastomys natalensis";-10.8167;26.1167;"Kando";"Congo Kinshasa";"morpho";"high";"BeBIF Provider";"NA";;
"Mastomys natalensis";-10.3;26.0667;"Kansenia";"Congo Kinshasa";"morpho";"high";"BeBIF Provider";"NA";;
"Mastomys natalensis";-4.5167;26.5833;"Kasongo";"Congo Kinshasa";"morpho";"high";"BeBIF Provider";"NA";;
"Mastomys natalensis";-5.0333;18.8167;"Kikwit";"Congo Kinshasa";"morpho";"high";"BeBIF Provider";"NA";;
"Mastomys natalensis";-5.0667;18.8667;"Kikwit-Bundi";"Congo Kinshasa";"morpho";"high";"BeBIF Provider";"NA";;
"Mastomys natalensis";-5.066;18.914;"Kilombo";"Congo Kinshasa";"morpho";"high";"BeBIF Provider";"NA";;
"Mastomys natalensis";-4.9772;18.7745;"Kinzambi";"Congo Kinshasa";"morpho";"high";"BeBIF Provider";"NA";;
"Mastomys natalensis";0.5;25.2;"Kisangani";"Congo Kinshasa";"morpho";"high";"BeBIF Provider";"NA";;
"Mastomys natalensis";-5.3333;27;"Kongolo";"Congo Kinshasa";"morpho";"high";"BeBIF Provider";"NA";;
"Mastomys natalensis";2.85;24.5667;"Koteli";"Congo Kinshasa";"morpho";"high";"BeBIF Provider";"NA";;
"Mastomys natalensis";-5.9333;25.5333;"Lualaba";"Congo Kinshasa";"morpho";"high";"BeBIF Provider";"NA";;
"Mastomys natalensis";-5.3333;21.55;"Luebo";"Congo Kinshasa";"morpho";"high";"BeBIF Provider";"NA";;
"Mastomys natalensis";-10.4667;27.5333;"Lukafu";"Congo Kinshasa";"morpho";"high";"BeBIF Provider";"NA";;
"Mastomys natalensis";-4.8333;23.4333;"Lusambo";"Congo Kinshasa";"morpho";"high";"BeBIF Provider";"NA";;
"Mastomys natalensis";-8.9333;27.2;"Lusinga";"Congo Kinshasa";"morpho";"high";"BeBIF Provider";"NA";;
"Mastomys natalensis";-8.65;26.5167;"Mabwe, rive E lac Upemba";"Congo Kinshasa";"morpho";"high";"BeBIF Provider";"NA";;
"Mastomys natalensis";0.55;27.7333;"Makala";"Congo Kinshasa";"morpho";"high";"BeBIF Provider";"NA";;
"Mastomys natalensis";0.85;27.55;"Mambaka";"Congo Kinshasa";"morpho";"high";"BeBIF Provider";"NA";;
"Mastomys natalensis";0.6;25.2167;"Masako";"Congo Kinshasa";"morpho";"high";"BeBIF Provider";"NA";;
"Mastomys natalensis";-9.0833;27.2;"Masombwe s/Grande Kafwe";"Congo Kinshasa";"morpho";"high";"BeBIF Provider";"NA";;
"Mastomys natalensis";3.5333;24.8333;"M'buma";"Congo Kinshasa";"morpho";"high";"BeBIF Provider";"NA";;
"Mastomys natalensis";2.4167;27.3;"Medje";"Congo Kinshasa";"morpho";"high";"BeBIF Provider";"NA";;
"Mastomys natalensis";-5.3333;24.8667;"Mitombe tshofa";"Congo Kinshasa";"morpho";"high";"BeBIF Provider";"NA";;
"Mastomys natalensis";-8.3667;22.25;"Musumba bij riv luzala";"Congo Kinshasa";"morpho";"high";"BeBIF Provider";"NA";;
"Mastomys natalensis";-5.1759;19.1166;"Ngome";"Congo Kinshasa";"morpho";"high";"BeBIF Provider";"NA";;
"Mastomys natalensis";-3.35;23.25;"Omaniumdu";"Congo Kinshasa";"morpho";"high";"BeBIF Provider";"NA";;
"Mastomys natalensis";1.8667;26.3833;"Panga";"Congo Kinshasa";"morpho";"high";"BeBIF Provider";"NA";;
"Mastomys natalensis";-3.1833;26.6167;"Pangi";"Congo Kinshasa";"morpho";"high";"BeBIF Provider";"NA";;
"Mastomys natalensis";2.75;27.6833;"Paulis";"Congo Kinshasa";"morpho";"high";"BeBIF Provider";"NA";;
"Mastomys natalensis";3.1333;26.9667;"Poko";"Congo Kinshasa";"morpho";"high";"BeBIF Provider";"NA";;
"Mastomys natalensis";3.25;27.95;"Rungu";"Congo Kinshasa";"morpho";"high";"BeBIF Provider";"NA";;
"Mastomys natalensis";-6.0167;22.3167;"St joseph luluabourg";"Congo Kinshasa";"morpho";"high";"BeBIF Provider";"NA";;
"Mastomys natalensis";2.97;19.35;"Tandala";"Congo Kinshasa";"morpho + chrom";"high";"Tervuren Museum";"NA";;
"Mastomys natalensis";-0.8833;18.15;"Tondu";"Congo Kinshasa";"morpho";"high";"BeBIF Provider";"NA";;
"Mastomys natalensis";0.5;25.5;"Tshakala";"Congo Kinshasa";"morpho";"high";"BeBIF Provider";"NA";;
"Mastomys natalensis";-6.4667;20.8;"Tshikapa";"Congo Kinshasa";"morpho";"high";"BeBIF Provider";"NA";;
"Mastomys natalensis";-1;23.3333;"Tshuapa bovenloop";"Congo Kinshasa";"morpho";"high";"BeBIF Provider";"NA";;
"Mastomys natalensis";2.58;21.78;"Yalosemba";"Congo Kinshasa";"morpho + chrom";"high";"Tervuren Museum";"NA";;
"Mastomys natalensis";1.2833;24.5667;"Yambuya";"Congo Kinshasa";"morpho";"high";"BeBIF Provider";"NA";;
"Mastomys natalensis";0.75;24.6667;"Yangambi";"Congo Kinshasa";"morpho";"high";"BeBIF Provider";"NA";;
"Mastomys natalensis";3.15;29.8333;"Abimva";"Congo Kinshasa";"morpho";"low";"BeBIF Provider";"NA";;
"Mastomys natalensis";-3.35;28.1333;"Bionga";"Congo Kinshasa";"morpho";"low";"BeBIF Provider";"NA";;
"Mastomys natalensis";1.0167;29.9667;"Boga";"Congo Kinshasa";"morpho";"low";"BeBIF Provider";"NA";;
"Mastomys natalensis";3.75;29.6667;"Faradje";"Congo Kinshasa";"morpho";"low";"BeBIF Provider";"NA";;
"Mastomys natalensis";3.6667;29.15;"Gangala na bodio";"Congo Kinshasa";"morpho";"low";"BeBIF Provider";"NA";;
"Mastomys natalensis";3.6833;29.1333;"Gangala-na-Bodio";"Congo Kinshasa";"morpho";"low";"BeBIF Provider";"NA";;
"Mastomys natalensis";3.9167;29.4167;"Garamba park, cel ii";"Congo Kinshasa";"morpho";"low";"BeBIF Provider";"NA";;
"Mastomys natalensis";1.5333;29.85;"Irumu";"Congo Kinshasa";"morpho";"low";"BeBIF Provider";"NA";;
"Mastomys natalensis";-3.1833;28.3333;"Kagada";"Congo Kinshasa";"morpho";"low";"BeBIF Provider";"NA";;
"Mastomys natalensis";-3.0167;28.1;"Kamituga";"Congo Kinshasa";"morpho";"low";"BeBIF Provider";"NA";;
"Mastomys natalensis";-0.4833;28.8167;"Lutunguru";"Congo Kinshasa";"morpho";"low";"BeBIF Provider";"NA";;
"Mastomys natalensis";3.9667;29.3833;"Nambira";"Congo Kinshasa";"morpho";"low";"BeBIF Provider";"NA";;
"Mastomys natalensis";6.78;-7.29;"Blodi";"Cote d'Ivoire";"morpho + PCR cytb";"high";"Lalis 2008";"NA";;
"Mastomys natalensis";8.65;-3.78;"Kakpin";"Cote d'Ivoire";"morpho + PCR cytb";"high";"Duplantier et al. 2009";"NA";;
"Mastomys natalensis";6.23;-4.93;"Aheremou";"Cote d'Ivoire";"morpho";"low";"Coulibaly-Ngolo et al. 2011";"NA";;
"Mastomys natalensis";6.14;-4.87;"Ahouakro";"Cote d'Ivoire";"morpho + PCR cytb";"high";"Coulibaly-Ngolo et al. 2011";"NA";;
"Mastomys natalensis";5.76;-5.48;"Gbagroube";"Cote d'Ivoire";"morpho + PCR cytb";"high";"Coulibaly-Ngolo et al. 2011";"NA";;
"Mastomys natalensis";6.18;-6.07;"Menekre";"Cote d'Ivoire";"morpho + PCR cytb";"high";"Coulibaly-Ngolo et al. 2011";"NA";;
"Mastomys natalensis";8.23;-2.56;"Sanguiebo";"Cote d'Ivoire";"morpho + PCR cytb";"high";"Coulibaly-Ngolo et al. 2011";"NA";;
"Mastomys natalensis";6.74;-3.38;"Touzoukro";"Cote d'Ivoire";"morpho";"low";"Coulibaly-Ngolo et al. 2011";"NA";;
"Mastomys natalensis";7.07;-3.13;"Kotokossou";"Cote d'Ivoire";"morpho + PCR cytb";"high";"Coulibaly-Ngolo et al. 2011";"NA";;
"Mastomys natalensis";6.7942;-7.2958;"Blodi";"Cote d'Ivoire";"morpho + PCR cytb";"high";"Coulibaly-Ngolo et al. 2011";"NA";;
"Mastomys natalensis";6.7333;-3.4833;"Abengourou";"Cote d'Ivoire";"morpho";"low";"BeBIF Provider";"NA";;
"Mastomys natalensis";6.8333;-5.05;"Abokouamekro ranch satmaci";"Cote d'Ivoire";"morpho";"low";"BeBIF Provider";"NA";;
"Mastomys natalensis";5.3333;-4.1167;"Adiopodoume";"Cote d'Ivoire";"morpho";"low";"BeBIF Provider";"NA";;
"Mastomys natalensis";5.3167;-4.3333;"Agneby";"Cote d'Ivoire";"morpho";"low";"BeBIF Provider";"NA";;
"Mastomys natalensis";9.5667;-3.9333;"Badedeya";"Cote d'Ivoire";"morpho";"low";"BeBIF Provider";"NA";;
"Mastomys natalensis";9.5667;-3.8833;"Bambela";"Cote d'Ivoire";"morpho";"low";"BeBIF Provider";"NA";;
"Mastomys natalensis";5.4167;-4.05;"Banco";"Cote d'Ivoire";"morpho";"low";"BeBIF Provider";"NA";;
"Mastomys natalensis";9.5833;-3.9167;"Batidi nord";"Cote d'Ivoire";"morpho";"low";"BeBIF Provider";"NA";;
"Mastomys natalensis";9.45;-3.9;"Biguilaie";"Cote d'Ivoire";"morpho";"low";"BeBIF Provider";"NA";;
"Mastomys natalensis";7.9833;-6.7167;"Bolo";"Cote d'Ivoire";"morpho";"low";"BeBIF Provider";"NA";;
"Mastomys natalensis";7.6833;-5.0333;"Bouake";"Cote d'Ivoire";"morpho";"low";"BeBIF Provider";"NA";;
"Mastomys natalensis";9.4;-3;"Bouna";"Cote d'Ivoire";"morpho";"low";"BeBIF Provider";"NA";;
"Mastomys natalensis";5.3167;-4.3833;"Dabou";"Cote d'Ivoire";"morpho";"low";"BeBIF Provider";"NA";;
"Mastomys natalensis";9.6833;-6.4;"Dembasso";"Cote d'Ivoire";"morpho";"low";"BeBIF Provider";"NA";;
"Mastomys natalensis";5.8;-5.25;"Divo";"Cote d'Ivoire";"morpho";"low";"BeBIF Provider";"NA";;
"Mastomys natalensis";9.8;-3.3333;"Doropo";"Cote d'Ivoire";"morpho";"low";"BeBIF Provider";"NA";;
"Mastomys natalensis";6.75;-7.35;"Duekove";"Cote d'Ivoire";"morpho";"low";"BeBIF Provider";"NA";;
"Mastomys natalensis";7.8167;-4.6833;"Fetekro";"Cote d'Ivoire";"morpho";"low";"BeBIF Provider";"NA";;
"Mastomys natalensis";7.2833;-8.05;"Flampleu";"Cote d'Ivoire";"morpho";"low";"BeBIF Provider";"NA";;
"Mastomys natalensis";6;-7.5333;"Gnenehoroke";"Cote d'Ivoire";"morpho";"low";"BeBIF Provider";"NA";;
"Mastomys natalensis";7.4333;-8.2833;"Gopopleu";"Cote d'Ivoire";"morpho";"low";"BeBIF Provider";"NA";;
"Mastomys natalensis";5.1333;-5.0167;"Grand lahou";"Cote d'Ivoire";"morpho";"low";"BeBIF Provider";"NA";;
"Mastomys natalensis";6.55;-7.4833;"Guiglo m'bla";"Cote d'Ivoire";"morpho";"low";"BeBIF Provider";"NA";;
"Mastomys natalensis";5.3333;-4.1333;"Idert";"Cote d'Ivoire";"morpho";"low";"BeBIF Provider";"NA";;
"Mastomys natalensis";8.5167;-5.3167;"Kafine";"Cote d'Ivoire";"morpho";"low";"BeBIF Provider";"NA";;
"Mastomys natalensis";7.0833;-4.0667;"Komoso";"Cote d'Ivoire";"morpho";"low";"BeBIF Provider";"NA";;
"Mastomys natalensis";5.3667;-3.8167;"Lame irho";"Cote d'Ivoire";"morpho";"low";"BeBIF Provider";"NA";;
"Mastomys natalensis";7.65;-7.6167;"Mangouin";"Cote d'Ivoire";"morpho";"low";"BeBIF Provider";"NA";;
"Mastomys natalensis";7.3;-8.0667;"Matonguine";"Cote d'Ivoire";"morpho";"low";"BeBIF Provider";"NA";;
"Mastomys natalensis";5.3;-4.45;"Mopoyem";"Cote d'Ivoire";"morpho";"low";"BeBIF Provider";"NA";;
"Mastomys natalensis";9.4;-4.4833;"Nassian";"Cote d'Ivoire";"morpho";"low";"BeBIF Provider";"NA";;
"Mastomys natalensis";9.3333;-4.6833;"Niangbata";"Cote d'Ivoire";"morpho";"low";"BeBIF Provider";"NA";;
"Mastomys natalensis";8.2167;-5.1333;"Ofiakaha";"Cote d'Ivoire";"morpho";"low";"BeBIF Provider";"NA";;
"Mastomys natalensis";9.5667;-4.05;"Ouango";"Cote d'Ivoire";"morpho";"low";"BeBIF Provider";"NA";;
"Mastomys natalensis";10.05;-7.5333;"Sanaferedougou";"Cote d'Ivoire";"morpho";"low";"BeBIF Provider";"NA";;
"Mastomys natalensis";7.3667;-7.35;"Seambly";"Cote d'Ivoire";"morpho";"low";"BeBIF Provider";"NA";;
"Mastomys natalensis";9.7;-5.3333;"Tiegbe";"Cote d'Ivoire";"morpho";"low";"BeBIF Provider";"NA";;
"Mastomys natalensis";6.4333;-8.15;"Tinhou doropo";"Cote d'Ivoire";"morpho";"low";"BeBIF Provider";"NA";;
"Mastomys natalensis";6.6167;-8.4833;"Toyebli";"Cote d'Ivoire";"morpho";"low";"BeBIF Provider";"NA";;
"Mastomys natalensis";7.8833;-4.6333;"Yooamounkro";"Cote d'Ivoire";"morpho";"low";"BeBIF Provider";"NA";;
"Mastomys natalensis";6.55;-8.3833;"Ziombly";"Cote d'Ivoire";"morpho";"low";"BeBIF Provider";"NA";;
"Mastomys natalensis";6.5333;-8.4667;"Zoguine";"Cote d'Ivoire";"morpho";"low";"BeBIF Provider";"NA";;
"Mastomys natalensis";7.88;34.37;"Gambela";"Ethiopia";"morpho + chrom";"high";"Bulatova et al. 1999 (ASM)";"NA";;
"Mastomys natalensis";8.38;39.15;"Koka lake";"Ethiopia";"morpho + chrom";"high";"Lavrenchenko 1998";"NA";;
"Mastomys natalensis";8.93;37.97;"Ambo";"Ethiopia";"morpho + chrom";"high";"Lavrenchenko 1998";"NA";;
"Mastomys natalensis";10.2582;-2.626;"Natorduori";"Ghana";"morpho + PCR cytb";"high";"Kronmann et al. 2013";"NA";;
"Mastomys natalensis";9.547;-1.6325;"Bewena";"Ghana";"morpho + PCR cytb";"high";"Kronmann et al. 2013";"NA";;
"Mastomys natalensis";10.395;-0.366;"Teanoba";"Ghana";"morpho + PCR cytb";"high";"Kronmann et al. 2013";"NA";;
"Mastomys natalensis";8.3472;-0.3458;"Jirandogo";"Ghana";"morpho + PCR cytb";"high";"Kronmann et al. 2013";"NA";;
"Mastomys natalensis";7.1227;-2.3277;"Amomaso";"Ghana";"morpho + PCR cytb";"high";"Kronmann et al. 2013";"NA";;
"Mastomys natalensis";10.6193;-1.4218;"Doninga";"Ghana";"morpho + PCR cytb";"high";"Kronmann et al. 2013";"NA";;
"Mastomys natalensis";7.9685;-1.6632;"Mangoase";"Ghana";"morpho + PCR cytb";"high";"Kronmann et al. 2013";"NA";;
"Mastomys natalensis";7.6742;-0.633;"Monkwo";"Ghana";"morpho + PCR cytb";"high";"Kronmann et al. 2013";"NA";;
"Mastomys natalensis";7.7164;-9.2686;"Bamakama";"Guinea";"morpho + PCR cytb";"high";"Lecompte et al. 2006";"NA";;
"Mastomys natalensis";10.0667;-10.5833;"Bantou";"Guinea";"morpho + PCR cytb";"high";"Lecompte et al. 2006";"NA";;
"Mastomys natalensis";8.5683;-10.0308;"Bawa";"Guinea";"morpho + ELISA Lassa (3%)";"high";"Demby et al. 2001";"NA";;
"Mastomys natalensis";8.0833;-8.9144;"Bhoita";"Guinea";"morpho + PCR cytb";"high";"Lecompte et al. 2006";"NA";;
"Mastomys natalensis";9;-9.95;"Boue";"Guinea";"morpho + ELISA Lassa (11%)";"high";"Demby et al. 2001";"NA";;
"Mastomys natalensis";8.4928;-10.4453;"Denguedou";"Guinea";"morpho + PCR cytb";"high";"Lecompte et al. 2006";"NA";;
"Mastomys natalensis";8.5;-10.6;"Fangamandou";"Guinea";"morpho + ELISA Lassa (37%)";"high";"Demby et al. 2001";"NA";;
"Mastomys natalensis";9.6333;-8.9433;"Franfina";"Guinea";"morpho + PCR cytb";"high";"Lecompte et al. 2006";"NA";;
"Mastomys natalensis";11.0833;-12.2833;"Gagal";"Guinea";"morpho + PCR cytb";"high";"Lecompte et al. 2006";"NA";;
"Mastomys natalensis";9.84;-11.0333;"Gbetaya";"Guinea";"morpho + PCR cytb";"high";"Lecompte et al. 2006";"NA";;
"Mastomys natalensis";10.75;-11.8;"Kalia";"Guinea";"morpho + PCR cytb";"high";"Lecompte pers. Com";"NA";;
"Mastomys natalensis";10.5;-9.0167;"Kodoko";"Guinea";"morpho + PCR cytb";"high";"Lecompte et al. 2006";"NA";;
"Mastomys natalensis";8.5625;-10.02;"Lorlu";"Guinea";"morpho + ELISA Lassa (13%)";"high";"Demby et al. 2001";"NA";;
"Mastomys natalensis";9.8833;-12.45;"Madina Oula";"Guinea";"morpho + ELISA Lassa (23%)";"high";"Demby et al. 2001";"NA";;
"Mastomys natalensis";7.64;-8.8;"Nona-Bounouma";"Guinea";"morpho + ELISA Lassa (12%)";"high";"Fair et al. 2007";"NA";;
"Mastomys natalensis";8.4828;-10.44;"Ow Jiba";"Guinea";"morpho + ELISA Lassa (33%)";"high";"Demby et al. 2001";"NA";;
"Mastomys natalensis";8.6;-9.4667;"Sangassou";"Guinea";"morpho + PCR cytb";"high";"Lecompte et al. 2006";"NA";;
"Mastomys natalensis";11.5167;-9;"Saourou";"Guinea";"morpho + PCR cytb";"high";"Lecompte et al. 2006";"NA";;
"Mastomys natalensis";11.42;-12.35;"Satina";"Guinea";"morpho + PCR cytb";"high";"Lecompte pers. Com";"NA";;
"Mastomys natalensis";9.7167;-10.8833;"Songoya";"Guinea";"morpho + ELISA Lassa (31%)";"high";"Demby et al. 2001";"NA";;
"Mastomys natalensis";10;-10.9667;"Tanganya";"Guinea";"morpho + PCR cytb";"high";"Lecompte et al. 2006";"NA";;
"Mastomys natalensis";8.5626;-10.01;"Tekoulo";"Guinea";"morpho + ELISA Lassa (8%)";"high";"Demby et al. 2001";"NA";;
"Mastomys natalensis";11.35;-12.68;"Téliré";"Guinea";"morpho + PCR cytb";"high";"Lecompte pers. Com";"NA";;
"Mastomys natalensis";7.5603;-9.26;"Waita";"Guinea";"morpho + ELISA Lassa (4%)";"high";"Demby et al. 2001";"NA";;
"Mastomys natalensis";-1.11;34.98;"Kitale Endebes";"Kenya";"morpho + PCR cytb";"high";"BeBIF Provider";"NA";;
"Mastomys natalensis";-0.1667;26.2667;"Rongai";"Kenya";"morpho + PCR cyt b";"high";"BeBIF Provider";"NA";;
"Mastomys natalensis";1.02;35;"Kitale";"Kenya";"morpho + chrom";"high";"Corti et al. 2005";"NA";;
"Mastomys natalensis";1.27;36.82;"Nairobi";"Kenya";"morpho + chrom + PCR cytb";"high";"Corti et al. 2005/BEBIF provider";"NA";;
"Mastomys natalensis";-2.9833;38.4667;"Camp simba tsavo";"Kenya";"morpho";"low";"BeBIF Provider";"NA";;
"Mastomys natalensis";1.1667;34.5333;"Elgon mt";"Kenya";"morpho";"low";"BeBIF Provider";"NA";;
"Mastomys natalensis";-0.9667;38.3;"Kinu machakos district";"Kenya";"morpho";"low";"BeBIF Provider";"NA";;
"Mastomys natalensis";-0.1667;35;"Kjaertinge";"Kenya";"morpho";"low";"BeBIF Provider";"NA";;
"Mastomys natalensis";-0.25;35.7333;"Kjaertinge";"Kenya";"morpho";"low";"BeBIF Provider";"NA";;
"Mastomys natalensis";1.5333;35.3833;"Maroon river";"Kenya";"morpho";"low";"BeBIF Provider";"NA";;
"Mastomys natalensis";-3.1667;37.6333;"Mbalula";"Kenya";"morpho";"low";"BeBIF Provider";"NA";;
"Mastomys natalensis";0.05;37.65;"Meru, mont Kenya";"Kenya";"morpho";"low";"BeBIF Provider";"NA";;
"Mastomys natalensis";-3.3333;37.8333;"Mkuyu riv";"Kenya";"morpho";"low";"BeBIF Provider";"NA";;
"Mastomys natalensis";-1.8167;37.5333;"Nziu machakos district";"Kenya";"morpho";"low";"BeBIF Provider";"NA";;
"Mastomys natalensis";-3.3667;37.7833;"Ziwani swamp";"Kenya";"morpho";"low";"BeBIF Provider";"NA";;
"Mastomys natalensis";1.23;36.8;"Kahawa";"Kenya";"morpho";"low";"Oguge 1995";"NA";;
"Mastomys natalensis";3.38;39.93;"Mida Creek";"Kenya";"morpho";"low";"Canova & Fasola 2000";"NA";;
"Mastomys natalensis";0.5;37.5;"Mukogodo forest";"Kenya";"morpho";"low";"Webala et al. 2006";"NA";;
"Mastomys natalensis";0.46;35.96;"Perkerra settlement";"Kenya";"morpho";"low";"Githure et al. 1986";"NA";;
"Mastomys natalensis";4.22;39.56;"River Tiwi";"Kenya";"morpho";"low";"Canova & Fasola 2000";"NA";;
"Mastomys natalensis";-0.116667;34.766667;"Nyabera Swamp, in Kisumu";"Kenya";"morpho";"low";"Hanelt et al. 2009";"NA";"http://earth-info.nga.mil/gns/html/namefiles.htm";
"Mastomys natalensis";8.04;-9.49;"Zigida";"Liberia";"morpho + Lassa cell culture (pos)";"high";"Monath et al. 1973";"NA";;
"Mastomys natalensis";6.3167;-10.8;"Monrovia";"Liberia";"morpho";"low";"BeBIF Provider";"NA";;
"Mastomys natalensis";7.65;-8.5;"Nimba (mont)";"Liberia";"morpho";"low";"BeBIF Provider";"NA";;
"Mastomys natalensis";7.5833;-8.5333;"Yekepa";"Liberia";"morpho";"low";"BeBIF Provider";"NA";;
"Mastomys natalensis";7.4833;-8.6167;"Gbapa";"Liberia";"morpho";"low";"BeBIF Provider";"NA";;
"Mastomys natalensis";-16.3;34.73;"Lengwe NP";"Malawi";"morpho";"high";"Happold & Happold 1991";"NA";;
"Mastomys natalensis";12.27;-8.75;"Massakoroma";"Mali";"morpho + PCR cytb";"high";"Duplantier et al. 2009";"NA";;
"Mastomys natalensis";12.95;-8.17;"Kalifabougou";"Mali";"morpho + PCR cytb";"high";"Lecompte et al. 2005";"NA";;
"Mastomys natalensis";13.03;-7.23;"Kalibougou";"Mali";"morpho + PCR cytb";"high";"Lecompte et al. 2005";"NA";;
"Mastomys natalensis";12.88;-8.14;"Sokolobougou";"Mali";"morpho + PCR cytb";"high";"Lecompte et al. 2005";"NA";;
"Mastomys natalensis";12.55;-8.05;"Samaya";"Mali";"morpho + PCR cytb";"high";"Lecompte et al. 2005";"NA";;
"Mastomys natalensis";14.99;-7.67;"Dilly";"Mali";"morpho + PCR cytb";"high";"Lecompte et al. 2005";"NA";;
"Mastomys natalensis";12.5;-10.27;"Soukoutali";"Mali";"morpho + PCR cytb";"high";"Duplantier et al. 2009";"NA";;
"Mastomys natalensis";12.45;-10.25;"Gainsoa";"Mali";"morpho + PCR cytb";"high";"Duplantier et al. 2009";"NA";;
"Mastomys natalensis";12.63;-8;"Bamako ";"Mali";"morpho + PCR cytb";"high";"Duplantier et al. 2009";"NA";;
"Mastomys natalensis";13.02;-8.23;"Niamana (Missira)";"Mali";"morpho + PCR cytb";"high";"Duplantier et al. 2009";"NA";;
"Mastomys natalensis";12.33;-8.13;"Djoliba";"Mali";"morpho + PCR cytb";"high";"Duplantier et al. 2009";"NA";;
"Mastomys natalensis";14.18;-3.55;"Endé";"Mali";"morpho + PCR cytb";"high";"Duplantier et al. 2009";"NA";;
"Mastomys natalensis";15.07;-2.78;"Gono";"Mali";"morpho + PCR cytb";"high";"Duplantier et al. 2009";"NA";;
"Mastomys natalensis";12.56;-8.88;"Kignielendo";"Mali";"morpho + PCR cytb";"high";"Duplantier et al. 2009";"NA";;
"Mastomys natalensis";12.3;-8.15;"Kirina";"Mali";"morpho + PCR cytb";"high";"Duplantier et al. 2009";"NA";;
"Mastomys natalensis";11.96;-5.68;"Kouoro";"Mali";"morpho + PCR cytb";"high";"Duplantier et al. 2009";"NA";;
"Mastomys natalensis";11.22;-5.46;"Mamouroubougou";"Mali";"morpho + PCR cytb";"high";"Duplantier et al. 2009";"NA";;
"Mastomys natalensis";11.23;-5.41;"Saniena";"Mali";"morpho + PCR cytb";"high";"Duplantier et al. 2009";"NA";;
"Mastomys natalensis";12.53;-8.08;"Samanko (ICRYSAT)";"Mali";"morpho + PCR cytb";"high";"Duplantier et al. 2009";"NA";;
"Mastomys natalensis";12.27;-8.76;"Tombané";"Mali";"morpho + PCR cytb";"high";"Duplantier et al. 2009";"NA";;
"Mastomys natalensis";14.07;-3.2;"Yedianga";"Mali";"morpho + PCR cytb";"high";"Duplantier et al. 2009";"NA";;
"Mastomys natalensis";10.48;-7.95;"Dalakan";"Mali";"morpho + PCR cytb";"high";"Duplantier et al. 2009";"NA";;
"Mastomys natalensis";12.93;-10.48;"Sandiguila";"Mali";"morpho + PCR cytb";"high";"Duplantier et al. 2009";"NA";;
"Mastomys natalensis";10.81;-5.65;"Seniena";"Mali";"morpho + PCR cytb";"high";"Duplantier et al. 2009";"NA";;
"Mastomys natalensis";13.03;-10.48;"Toumania";"Mali";"morpho + PCR cytb";"high";"Duplantier et al. 2009";"NA";;
"Mastomys natalensis";10.8;-5.6;"Woroni";"Mali";"morpho + PCR cytb";"high";"Duplantier et al. 2009";"NA";;
"Mastomys natalensis";12.25;-10.32;"Bindougou";"Mali";"morpho + PCR cytb";"high";"Duplantier et al. 2009";"NA";;
"Mastomys natalensis";-25.8967;32.5429;"Infulene";"Mozambique";"morpho";"high";"BeBIF Provider";"NA";;
"Mastomys natalensis";-25.8833;32.45;"Machava";"Mozambique";"morpho";"high";"BeBIF Provider";"NA";;
"Mastomys natalensis";-25.94;32.58;"Maxaquene";"Mozambique";"morpho";"high";"BeBIF Provider";"NA";;
"Mastomys natalensis";-17.33;35.58;"Murrumbala";"Mozambique";"morpho + PCR cytb";"high";"BeBIF Provider";"NA";;
"Mastomys natalensis";-17.44;35.07;"Mutarara";"Mozambique";"morpho";"high";"BeBIF Provider";"NA";;
"Mastomys natalensis";-17.73;15.72;"Okatana";"Namibia";"morpho";"low";"BeBIF Provider";"NA";;
"Mastomys natalensis";-32.6833;14.5333;"Swakopmund";"Namibia";"morpho";"low";"BeBIF Provider";"NA";;
"Mastomys natalensis";12.91;2.4;"Babangata";"Niger";"morpho + chrom";"high";"Dobigny et al. 2002";"NA";;
"Mastomys natalensis";14.37;3.38;"Batchintoulou";"Niger";"morpho + chrom";"high";"Dobigny et al. 2002";"NA";;
"Mastomys natalensis";13.53;2.1;"Niamey";"Niger";"morpho + chrom";"high";"Dobigny et al. 2002";"NA";;
"Mastomys natalensis";11.83;3.33;"Tara";"Niger";"morpho + chrom";"high";"Dobigny et al. 2002";"NA";;
"Mastomys natalensis";13.2;2.35;"Tokaye";"Niger";"morpho + chrom";"high";"Dobigny et al. 2002";"NA";;
"Mastomys natalensis";13.56;2.02;"Tondibia";"Niger";"morpho + chrom";"high";"Dobigny et al. 2002";"NA";;
"Mastomys natalensis";15.13;2.08;"Bani Kokorbei";"Niger";"morpho + chrom + PCR cytb";"high";"Duplantier et al. 2009";"NA";;
"Mastomys natalensis";13.13;1.96;"Piliki";"Niger";"morpho + chrom + PCR cytb";"high";"Duplantier et al. 2009";"NA";;
"Mastomys natalensis";13.4;7.13;"Djirataoua";"Niger";"morpho + chrom + PCR cytb";"high";"Duplantier et al. 2009";"NA";;
"Mastomys natalensis";11.88;3.45;"Gaya barrage";"Niger";"morpho + chrom + PCR cytb";"high";"Duplantier et al. 2009";"NA";;
"Mastomys natalensis";12.41;2.83;"Boumba";"Niger";"morpho + chrom + PCR cytb";"high";"Duplantier et al. 2009";"NA";;
"Mastomys natalensis";14.61;8.5;"Gangara";"Niger";"morpho + chrom + PCR cytb";"high";"Duplantier et al. 2009";"NA";;
"Mastomys natalensis";12.55;2.63;"Karey Kopto";"Niger";"morpho + chrom + PCR cytb";"high";"Duplantier et al. 2009";"NA";;
"Mastomys natalensis";13;1.0667;"Maccalondi";"Niger";"morpho";"low";"BeBIF Provider";"NA";;
"Mastomys natalensis";9.33;9.45;"Ner-Pankshin";"Nigeria";"morpho + cell culture Lassa";"high";"Wulff et al. 1975";"NA";;
"Mastomys natalensis";7.33;4.12;"Asejire";"Nigeria";"morpho + skull";"high";"Olayemi & Akinpelu 2008";"NA";;
"Mastomys natalensis";7.47;4.57;"Ife";"Nigeria";"morpho + skull";"high";"Olayemi & Akinpelu 2008";"NA";;
"Mastomys natalensis";7.77;4.57;"Osogbo";"Nigeria";"morpho + skull";"high";"Olayemi & Akinpelu 2008";"NA";;
"Mastomys natalensis";8.13;4.27;"Ogbomosos";"Nigeria";"morpho + skull";"high";"Olayemi & Akinpelu 2008";"NA";;
"Mastomys natalensis";8.5;4.55;"Ilorin";"Nigeria";"morpho + skull";"high";"Olayemi & Akinpelu 2008";"NA";;
"Mastomys natalensis";6.78;6.35;"Idumu-Oze";"Nigeria";"morpho";"low";"pers. Obs.";"NA";;
"Mastomys natalensis";8;3.2;"Oke-Iho";"Nigeria";"morpho";"low";"Happold 1975";"NA";;
"Mastomys natalensis";7.68;3.12;"Igangan";"Nigeria";"morpho";"low";"Happold 1975";"NA";;
"Mastomys natalensis";7.45;3.28;"Igbo-Ora";"Nigeria";"morpho";"low";"Happold 1975";"NA";;
"Mastomys natalensis";7.43;3.53;"Olokomeji";"Nigeria";"morpho";"low";"Happold 1975";"NA";;
"Mastomys natalensis";9.25;3.83;"Kishi";"Nigeria";"morpho";"low";"Happold 1975";"NA";;
"Mastomys natalensis";8.15;5.1;"Omu-Aran";"Nigeria";"morpho";"low";"Happold 1975";"NA";;
"Mastomys natalensis";8.23;5.51;"Egbe";"Nigeria";"morpho";"low";"Happold 1975";"NA";;
"Mastomys natalensis";7.83;6.08;"Kabba";"Nigeria";"morpho";"low";"Happold 1975";"NA";;
"Mastomys natalensis";10.15;11.3833;"Nono";"Nigeria";"morpho";"low";"BeBIF Provider";"NA";;
"Mastomys natalensis";7.5439;4.5131;"Abagboro";"Nigeria";"morpho + PCR cytb";"high";"Olayemi et al. 2018";"NA";;
"Mastomys natalensis";7.6906;4.6194;"Kako";"Nigeria";"morpho + PCR cytb";"high";"Olayemi et al. 2018";"NA";;
"Mastomys natalensis";7.7013;4.6554;"Esira";"Nigeria";"morpho + PCR cytb";"high";"Olayemi et al. 2018";"NA";;
"Mastomys natalensis";6.773;6.0924;"Eguare Egoro";"Nigeria";"morpho + PCR cytb";"high";"Olayemi et al. 2018";"NA";;
"Mastomys natalensis";6.7414;6.1049;"Ekpoma";"Nigeria";"morpho + PCR cytb";"high";"Olayemi et al. 2018";"NA";;
"Mastomys natalensis";7.641;8.4066;"Onmba Abena";"Nigeria";"morpho + PCR cytb";"high";"Olayemi et al. 2018";"NA";;
"Mastomys natalensis";8.8242;10.9209;"Mayo Ranewo";"Nigeria";"morpho + PCR cytb";"high";"Olayemi et al. 2018";"NA";;
"Mastomys natalensis";7.0919;11.0911;"Ngel Nyaki";"Nigeria";"morpho + PCR cytb";"high";"Olayemi et al. 2018";"NA";;
"Mastomys natalensis";-1.9;29.38;"Ruliba (Rulimba)";"Rwanda";"morpho + PCR cytb";"high";"BeBIF Provider";"NA";;
"Mastomys natalensis";-2.5667;29.7167;"Astrida";"Rwanda";"morpho";"low";"BeBIF Provider";"NA";;
"Mastomys natalensis";-1.5;30.2667;"Bilalu";"Rwanda";"morpho";"low";"BeBIF Provider";"NA";;
"Mastomys natalensis";-2.6833;29;"Bugarama";"Rwanda";"morpho";"low";"BeBIF Provider";"NA";;
"Mastomys natalensis";-2.0833;30.3333;"Bugesera";"Rwanda";"morpho";"low";"BeBIF Provider";"NA";;
"Mastomys natalensis";-2.6;29.7333;"Butare labo vet";"Rwanda";"morpho";"low";"BeBIF Provider";"NA";;
"Mastomys natalensis";-2.5167;28.8667;"Cyimbogo";"Rwanda";"morpho";"low";"BeBIF Provider";"NA";;
"Mastomys natalensis";-1.5167;30.4333;"Gabiro";"Rwanda";"morpho";"low";"BeBIF Provider";"NA";;
"Mastomys natalensis";-2.4667;29.9167;"Gakoma";"Rwanda";"morpho";"low";"BeBIF Provider";"NA";;
"Mastomys natalensis";-2.4833;29.5667;"Gasarenda";"Rwanda";"morpho";"low";"BeBIF Provider";"NA";;
"Mastomys natalensis";-2;30.5833;"Ibanda";"Rwanda";"morpho";"low";"BeBIF Provider";"NA";;
"Mastomys natalensis";-1.9333;30.7;"Kabuga";"Rwanda";"morpho";"low";"BeBIF Provider";"NA";;
"Mastomys natalensis";-2.4;29.1333;"Kagano";"Rwanda";"morpho";"low";"BeBIF Provider";"NA";;
"Mastomys natalensis";-1.55;30.25;"Kaninya";"Rwanda";"morpho";"low";"BeBIF Provider";"NA";;
"Mastomys natalensis";-2.6667;29.7833;"Kansi";"Rwanda";"morpho";"low";"BeBIF Provider";"NA";;
"Mastomys natalensis";-2.2667;30.2667;"Karama";"Rwanda";"morpho";"low";"BeBIF Provider";"NA";;
"Mastomys natalensis";-1.9833;30.15;"Karama";"Rwanda";"morpho";"low";"BeBIF Provider";"NA";;
"Mastomys natalensis";-1.94;29.65;"Katitumba (Katumba)";"Rwanda";"morpho";"low";"BeBIF Provider";"NA";;
"Mastomys natalensis";-2.6333;29.8167;"Kibilizi";"Rwanda";"morpho";"low";"BeBIF Provider";"NA";;
"Mastomys natalensis";-2.1667;30.5333;"Kibungo";"Rwanda";"morpho";"low";"BeBIF Provider";"NA";;
"Mastomys natalensis";-1.95;30.0667;"Kigali";"Rwanda";"morpho";"low";"BeBIF Provider";"NA";;
"Mastomys natalensis";-2.5;29.5167;"Kigombe";"Rwanda";"morpho";"low";"BeBIF Provider";"NA";;
"Mastomys natalensis";-2.5167;29.4333;"Kitabi";"Rwanda";"morpho";"low";"BeBIF Provider";"NA";;
"Mastomys natalensis";-2.4833;29.9333;"Mamba";"Rwanda";"morpho";"low";"BeBIF Provider";"NA";;
"Mastomys natalensis";-1.9833;30.1833;"Masaka";"Rwanda";"morpho";"low";"BeBIF Provider";"NA";;
"Mastomys natalensis";-1.4333;30.25;"Mimuli";"Rwanda";"morpho";"low";"BeBIF Provider";"NA";;
"Mastomys natalensis";-2.7167;29.55;"Mubuga";"Rwanda";"morpho";"low";"BeBIF Provider";"NA";;
"Mastomys natalensis";-2.4667;29.8167;"Mugogwe";"Rwanda";"morpho";"low";"BeBIF Provider";"NA";;
"Mastomys natalensis";-2;28.2833;"Murene";"Rwanda";"morpho";"low";"BeBIF Provider";"NA";;
"Mastomys natalensis";-1.9167;30.3333;"Musha";"Rwanda";"morpho";"low";"BeBIF Provider";"NA";;
"Mastomys natalensis";-0.3167;29.75;"Mutsora";"Rwanda";"morpho";"low";"BeBIF Provider";"NA";;
"Mastomys natalensis";-1.5833;29.5;"Nkuli";"Rwanda";"morpho";"low";"BeBIF Provider";"NA";;
"Mastomys natalensis";-2.1667;30.1;"Nyamata";"Rwanda";"morpho";"low";"BeBIF Provider";"NA";;
"Mastomys natalensis";-1.5667;30.25;"Nyarubuye";"Rwanda";"morpho";"low";"BeBIF Provider";"NA";;
"Mastomys natalensis";-2.4833;29.7667;"Rubona";"Rwanda";"morpho";"low";"BeBIF Provider";"NA";;
"Mastomys natalensis";-2.2167;30.5833;"Rukira";"Rwanda";"morpho";"low";"BeBIF Provider";"NA";;
"Mastomys natalensis";-1.95;30;"Rukira";"Rwanda";"morpho";"low";"BeBIF Provider";"NA";;
"Mastomys natalensis";-1.9167;30.2833;"Runyinya";"Rwanda";"morpho";"low";"BeBIF Provider";"NA";;
"Mastomys natalensis";-2.5333;30.05;"Rwahinda (Lake)";"Rwanda";"morpho";"low";"BeBIF Provider";"NA";;
"Mastomys natalensis";-2.4667;29.2;"Uwinka";"Rwanda";"morpho";"low";"BeBIF Provider";"NA";;
"Mastomys natalensis";12.53;-12.32;"Bandafassi";"Senegal";"morpho + PCR cytb";"high";"Brouat et al. 2007";"NA";;
"Mastomys natalensis";12.83;-11.88;"Bembou";"Senegal";"morpho + PCR cytb";"high";"Brouat et al. 2007";"NA";;
"Mastomys natalensis";12.81;-12.07;"Diakhaba";"Senegal";"morpho + PCR cytb";"high";"Brouat et al. 2007";"NA";;
"Mastomys natalensis";12.55;-12.2;"Fadiga";"Senegal";"morpho + PCR cytb";"high";"Brouat et al. 2007";"NA";;
"Mastomys natalensis";12.48;-11.95;"Kedougou";"Senegal";"morpho + PCR cytb";"high";"Brouat et al. 2007";"NA";;
"Mastomys natalensis";12.52;-12.43;"Ndebou";"Senegal";"morpho + PCR cytb";"high";"Brouat et al. 2007";"NA";;
"Mastomys natalensis";12.63;-12.25;"Ngari";"Senegal";"morpho + PCR cytb";"high";"Brouat et al. 2007";"NA";;
"Mastomys natalensis";13.02;-12.55;"Niemenike";"Senegal";"morpho + PCR cytb";"high";"Brouat et al. 2007";"NA";;
"Mastomys natalensis";12.6;-11.67;"Samekouta";"Senegal";"morpho + PCR cytb";"high";"Brouat et al. 2007";"NA";;
"Mastomys natalensis";12.8;-12.29;"Tomboronkoto";"Senegal";"morpho + PCR cytb";"high";"Brouat et al. 2007";"NA";;
"Mastomys natalensis";13.27;-12.1;"Bransan";"Senegal";"morpho + électrophorèse";"high";"Duplantier et al. 1990";"NA";;
"Mastomys natalensis";12.55;-12.18;"Kedougou A";"Senegal";"morpho + PCR cytb";"high";"Duplantier et al. 2009";"NA";;
"Mastomys natalensis";12.38;-12.32;"Dindifello";"Senegal";"morpho + PCR cytb";"high";"Duplantier et al. 2009";"NA";;
"Mastomys natalensis";13.0167;-13.1833;"Ba foula be";"Senegal";"morpho";"low";"BeBIF Provider";"NA";;
"Mastomys natalensis";12.5667;-15.8833;"Goudomp";"Senegal";"morpho";"low";"BeBIF Provider";"NA";;
"Mastomys natalensis";13.45;-13.7167;"Goulombo";"Senegal";"morpho";"low";"BeBIF Provider";"NA";;
"Mastomys natalensis";13;-13;"Niokolokoba";"Senegal";"morpho";"low";"BeBIF Provider";"NA";;
"Mastomys natalensis";9.07;-12.42;"Batkanu";"Sierra Leone";"morpho + chrom";"high";"Robbins et al. 1983";"NA";;
"Mastomys natalensis";7.78;-12;"Belebu";"Sierra Leone";"morpho + chrom";"high";"Robbins et al. 1983";"NA";;
"Mastomys natalensis";9.12;-11.9;"Bumban";"Sierra Leone";"morpho + chrom";"high";"Robbins et al. 1983";"NA";;
"Mastomys natalensis";9.38;-11.77;"Fadugu";"Sierra Leone";"morpho + chrom";"high";"Robbins et al. 1983";"NA";;
"Mastomys natalensis";8.22;-11.03;"Geliama";"Sierra Leone";"morpho + cell culture + IFA Lassa";"high";"McCormick et al. 1987";"NA";;
"Mastomys natalensis";8.17;-11.08;"Giehun";"Sierra Leone";"morpho + cell culture + IFA Lassa";"high";"McCormick et al. 1987";"NA";;
"Mastomys natalensis";8.2;-11.05;"Giema";"Sierra Leone";"morpho + chrom";"high";"Robbins et al. 1983";"NA";;
"Mastomys natalensis";9.4;-11.73;"Kafogo";"Sierra Leone";"morpho + chrom";"high";"Robbins et al. 1983";"NA";;
"Mastomys natalensis";9.18;-11.93;"Kamagbengbe";"Sierra Leone";"morpho + chrom";"high";"Robbins et al. 1983";"NA";;
"Mastomys natalensis";9.5;-12.23;"Kathumpe";"Sierra Leone";"morpho + chrom";"high";"Robbins et al. 1983";"NA";;
"Mastomys natalensis";8.1;-11.02;"Konia";"Sierra Leone";"morpho + chrom";"high";"Robbins et al. 1983";"NA";;
"Mastomys natalensis";8.22;-11.07;"Kpandebu";"Sierra Leone";"morpho + cell culture + IFA Lassa";"high";"McCormick et al. 1987";"NA";;
"Mastomys natalensis";8.2;-11.08;"Lalehun";"Sierra Leone";"morpho + cell culture + IFA Lassa";"high";"McCormick et al. 1987";"NA";;
"Mastomys natalensis";8.23;-11.05;"Landoma";"Sierra Leone";"morpho + cell culture + IFA Lassa";"high";"McCormick et al. 1987";"NA";;
"Mastomys natalensis";9.1;-12.32;"Mamaka";"Sierra Leone";"morpho + cell culture + IFA Lassa";"high";"McCormick et al. 1987";"NA";;
"Mastomys natalensis";8.12;-11;"Meema";"Sierra Leone";"morpho + chrom";"high";"Robbins et al. 1983";"NA";;
"Mastomys natalensis";8;-11.07;"Niahun";"Sierra Leone";"morpho + cell culture + IFA Lassa";"high";"McCormick et al. 1987";"NA";;
"Mastomys natalensis";8.1;-11.33;"Palima";"Sierra Leone";"morpho + cell culture + IFA Lassa";"high";"McCormick et al. 1987";"NA";;
"Mastomys natalensis";8.2;-11.22;"Panguma";"Sierra Leone";"morpho + cell culture Lassa";"high";"Monath et al. 1974";"NA";;
"Mastomys natalensis";7.83;-12;"Petema";"Sierra Leone";"morpho + chrom";"high";"Robbins et al. 1983";"NA";;
"Mastomys natalensis";7.98;-10.95;"Segbwema";"Sierra Leone";"morpho + chrom";"high";"Robbins et al. 1983";"NA";;
"Mastomys natalensis";8.45;-11.12;"Tongo";"Sierra Leone";"morpho + cell culture Lassa";"high";"Monath et al. 1974";"NA";;
"Mastomys natalensis";8.22;-11.05;"Tongola";"Sierra Leone";"morpho + cell culture + IFA Lassa";"high";"McCormick et al. 1987";"NA";;
"Mastomys natalensis";9.7;-11.88;"Waridalah";"Sierra Leone";"morpho + chrom";"high";"Robbins et al. 1983";"NA";;
"Mastomys natalensis";7.83;-12.02;"Yengema";"Sierra Leone";"morpho + chrom";"high";"Robbins et al. 1983";"NA";;
"Mastomys natalensis";8.4667;-13.2;"Freetown";"Sierra Leone";"morpho";"low";"BeBIF Provider";"NA";;
"Mastomys natalensis";8.3333;-13;"Newton";"Sierra Leone";"morpho";"low";"BeBIF Provider";"NA";;
"Mastomys natalensis";-28.73;32.08;"Richard's Bay";"South Africa";"morpho + PCR cytb";"high";"Lecompte et al. 2005";"NA";;
"Mastomys natalensis";-25.95;30.55;"Badplass";"South Africa";"morpho + PCR cytb";"high";"Lecompte et al. 2005";"NA";;
"Mastomys natalensis";-22.3;30.86;"?";"South Africa";"morpho + chrom/electroph";"high";"Venturi et al. 2004";"NA";;
"Mastomys natalensis";-22.43;31.07;"?";"South Africa";"morpho + chrom/electroph";"high";"Venturi et al. 2004";"NA";;
"Mastomys natalensis";-22.72;31.03;"?";"South Africa";"morpho + chrom/electroph";"high";"Venturi et al. 2004";"NA";;
"Mastomys natalensis";-23.05;30.22;"?";"South Africa";"morpho + chrom/electroph";"high";"Venturi et al. 2004";"NA";;
"Mastomys natalensis";-23.83;30.03;"?";"South Africa";"morpho + chrom/electroph";"high";"Venturi et al. 2004";"NA";;
"Mastomys natalensis";-23.83;30.75;"?";"South Africa";"morpho + chrom/electroph";"high";"Venturi et al. 2004";"NA";;
"Mastomys natalensis";-23.92;30.45;"?";"South Africa";"morpho + chrom/electroph";"high";"Venturi et al. 2004";"NA";;
"Mastomys natalensis";-24.17;30.38;"?";"South Africa";"morpho + chrom/electroph";"high";"Venturi et al. 2004";"NA";;
"Mastomys natalensis";-24.25;31.83;"?";"South Africa";"morpho + chrom/electroph";"high";"Venturi et al. 2004";"NA";;
"Mastomys natalensis";-24.38;31.78;"?";"South Africa";"morpho + chrom/electroph";"high";"Venturi et al. 2004";"NA";;
"Mastomys natalensis";-25.18;31.28;"?";"South Africa";"morpho + chrom/electroph";"high";"Venturi et al. 2004";"NA";;
"Mastomys natalensis";-25.58;31.43;"?";"South Africa";"morpho + chrom/electroph";"high";"Venturi et al. 2004";"NA";;
"Mastomys natalensis";-25.63;30.12;"?";"South Africa";"morpho + chrom/electroph";"high";"Venturi et al. 2004";"NA";;
"Mastomys natalensis";-25.7;30.97;"?";"South Africa";"morpho + chrom/electroph";"high";"Venturi et al. 2004";"NA";;
"Mastomys natalensis";-25.73;28.22;"?";"South Africa";"morpho + chrom/electroph";"high";"Venturi et al. 2004";"NA";;
"Mastomys natalensis";-25.77;31.05;"?";"South Africa";"morpho + chrom/electroph";"high";"Venturi et al. 2004";"NA";;
"Mastomys natalensis";-25.86;30.75;"?";"South Africa";"morpho + chrom/electroph";"high";"Venturi et al. 2004";"NA";;
"Mastomys natalensis";-27.04;32.42;"?";"South Africa";"morpho + chrom/electroph";"high";"Venturi et al. 2004";"NA";;
"Mastomys natalensis";-28.07;32.03;"?";"South Africa";"morpho + chrom/electroph";"high";"Venturi et al. 2004";"NA";;
"Mastomys natalensis";-28.38;32.36;"?";"South Africa";"morpho + chrom/electroph";"high";"Venturi et al. 2004";"NA";;
"Mastomys natalensis";-28.41;29.42;"?";"South Africa";"morpho + chrom/electroph";"high";"Venturi et al. 2004";"NA";;
"Mastomys natalensis";-28.42;29.4333;"?";"South Africa";"morpho + chrom/electroph";"high";"Venturi et al. 2004";"NA";;
"Mastomys natalensis";-26.68;28.93;"?";"South Africa";"morpho + chrom/electroph";"high";"Venturi et al. 2004";"NA";;
"Mastomys natalensis";-28.85;30;"?";"South Africa";"morpho + chrom/electroph";"high";"Venturi et al. 2004";"NA";;
"Mastomys natalensis";-29.47;30.38;"?";"South Africa";"morpho + chrom/electroph";"high";"Venturi et al. 2004";"NA";;
"Mastomys natalensis";-29.6;30.38;"?";"South Africa";"morpho + chrom/electroph";"high";"Venturi et al. 2004";"NA";;
"Mastomys natalensis";-29.6;31.02;"?";"South Africa";"morpho + chrom/electroph";"high";"Venturi et al. 2004";"NA";;
"Mastomys natalensis";-29.75;31.07;"?";"South Africa";"morpho + chrom/electroph";"high";"Venturi et al. 2004";"NA";;
"Mastomys natalensis";-29.87;31;"?";"South Africa";"morpho + chrom/electroph";"high";"Venturi et al. 2004";"NA";;
"Mastomys natalensis";-29.92;30.98;"?";"South Africa";"morpho + chrom/electroph";"high";"Venturi et al. 2004";"NA";;
"Mastomys natalensis";-33.03;26.53;"?";"South Africa";"morpho + chrom/electroph";"high";"Venturi et al. 2004";"NA";;
"Mastomys natalensis";-22.22;29.98;"Beit bridge";"South Africa";"morpho + PCR cytb";"low";"Dawood, unpublished in Genbank";"NA";;
"Mastomys natalensis";-26.2;28.0833;"Johannesburg";"South Africa";"morpho";"low";"BeBIF Provider";"NA";;
"Mastomys natalensis";-25.1;30.45;"Lydenburg";"South Africa";"morpho";"low";"BeBIF Provider";"NA";;
"Mastomys natalensis";-29.85;31.0167;"Port Natal";"South Africa";"morpho";"low";"BeBIF Provider";"NA";;
"Mastomys natalensis";-32.5667;27.4167;"Stutterheim";"South Africa";"morpho";"low";"BeBIF Provider";"NA";;
"Mastomys natalensis";19.1667;30.4833;"Dongola";"Sudan";"morpho";"low";"BeBIF Provider";"NA";;
"Mastomys natalensis";-26.18;31.98;"Mlawula Natur reserve";"Swaziland";"morpho";"high";"Mahlaba 2003";"NA";;
"Mastomys natalensis";-26.13;31.13;"Malolotja Nature Reserve";"Swaziland";"morpho";"high";"Monadjem 1999";"NA";;
"Mastomys natalensis";-26.56;30.88;"Mangcongco primary school";"Swaziland";"morpho";"high";"Monadjem 1999";"NA";;
"Mastomys natalensis";-26.46;30.98;"Torgyle primary school";"Swaziland";"morpho";"high";"Monadjem 1999";"NA";;
"Mastomys natalensis";-26.66;30.78;"Dwalile primary school";"Swaziland";"morpho";"high";"Monadjem 1999";"NA";;
"Mastomys natalensis";-26.85;30.93;"Bethlechem mission";"Swaziland";"morpho";"high";"Monadjem 1999";"NA";;
"Mastomys natalensis";-27.1;31.18;"Schonalanga Nature Reserve";"Swaziland";"morpho";"high";"Monadjem 1999";"NA";;
"Mastomys natalensis";-26.8;31.15;"Ekuphakameni high school";"Swaziland";"morpho";"high";"Monadjem 1999";"NA";;
"Mastomys natalensis";-26.76;31.07;"Ngcoseni primary school";"Swaziland";"morpho";"high";"Monadjem 1999";"NA";;
"Mastomys natalensis";-26.61;31.13;"Ncabameni primary school";"Swaziland";"morpho";"high";"Monadjem 1999";"NA";;
"Mastomys natalensis";-26.95;31.38;"Ebenezer primary school";"Swaziland";"morpho";"high";"Monadjem 1999";"NA";;
"Mastomys natalensis";-27.27;31.53;"Our Lady of Sorrows high school";"Swaziland";"morpho";"high";"Monadjem 1999";"NA";;
"Mastomys natalensis";-27.18;31.38;"Franson Christian high school";"Swaziland";"morpho";"high";"Monadjem 1999";"NA";;
"Mastomys natalensis";-26.45;31.13;"Mlilwane Game Reserve";"Swaziland";"morpho";"high";"Monadjem 1999";"NA";;
"Mastomys natalensis";-26.48;31.96;"Mutimuti Nature Reserve";"Swaziland";"morpho";"high";"Monadjem 1999";"NA";;
"Mastomys natalensis";-25.88;31.28;"Phophonyane Nature Reserve";"Swaziland";"morpho";"high";"Monadjem 1999";"NA";;
"Mastomys natalensis";-27.05;31.41;"Sandleni Primary school";"Swaziland";"morpho";"high";"Monadjem 1999";"NA";;
"Mastomys natalensis";-26.55;31.27;"Ekundizeni";"Swaziland";"morpho";"high";"Monadjem 1999";"NA";;
"Mastomys natalensis";-26.23;31.43;"St Florence Mission";"Swaziland";"morpho";"high";"Monadjem 1999";"NA";;
"Mastomys natalensis";-26.86;31.32;"Nkwene high school";"Swaziland";"morpho";"high";"Monadjem 1999";"NA";;
"Mastomys natalensis";-26.45;31.45;"St Joseph Mission";"Swaziland";"morpho";"high";"Monadjem 1999";"NA";;
"Mastomys natalensis";-26.05;31.45;"St Peregrines Mission";"Swaziland";"morpho";"high";"Monadjem 1999";"NA";;
"Mastomys natalensis";-26.37;31.56;"Dinedor Ranch";"Swaziland";"morpho";"high";"Monadjem 1999";"NA";;
"Mastomys natalensis";-26.4;31.51;"Mafutseni Ranch";"Swaziland";"morpho";"high";"Monadjem 1999";"NA";;
"Mastomys natalensis";-27.02;31.65;"Maloma Primary school";"Swaziland";"morpho";"high";"Monadjem 1999";"NA";;
"Mastomys natalensis";-26.88;31.6;"Sithobela Primary school";"Swaziland";"morpho";"high";"Monadjem 1999";"NA";;
"Mastomys natalensis";-25.88;31.51;"Mkhumzweni Primary school";"Swaziland";"morpho";"high";"Monadjem 1999";"NA";;
"Mastomys natalensis";-26.03;31.58;"Sikhunyane High school";"Swaziland";"morpho";"high";"Monadjem 1999";"NA";;
"Mastomys natalensis";-25.96;31.71;"Tshaneni";"Swaziland";"morpho";"high";"Monadjem 1999";"NA";;
"Mastomys natalensis";-27.27;31.8;"Ndabazezwe high school";"Swaziland";"morpho";"high";"Monadjem 1999";"NA";;
"Mastomys natalensis";-26.25;31.86;"Hlane National Park";"Swaziland";"morpho";"high";"Monadjem 1999";"NA";;
"Mastomys natalensis";-26.61;31.73;"Mkhaya Game Reserve";"Swaziland";"morpho";"high";"Monadjem 1999";"NA";;
"Mastomys natalensis";-26.68;31.88;"Bar Circle Ranch";"Swaziland";"morpho";"high";"Monadjem 1999";"NA";;
"Mastomys natalensis";-27.08;31.95;"Mbutfu Primary school";"Swaziland";"morpho";"high";"Monadjem 1999";"NA";;
"Mastomys natalensis";-26.15;31.98;"Umbuluzi Nature Reserve";"Swaziland";"morpho";"high";"Monadjem 1999";"NA";;
"Mastomys natalensis";-26.68;31.83;"Tendekwa Ranch";"Swaziland";"morpho";"high";"Monadjem 1999";"NA";;
"Mastomys natalensis";-26.98;31.95;"Nsoko Ranch";"Swaziland";"morpho";"high";"Monadjem 1999";"NA";;
"Mastomys natalensis";-26.76;31.9;"Mhlosinga Nature Reserve";"Swaziland";"morpho";"high";"Monadjem 1999";"NA";;
"Mastomys natalensis";-26.2;32.02;"Mlawula Nature Reserve";"Swaziland";"morpho";"high";"Monadjem 1999";"NA";;
"Mastomys natalensis";-6.18;37.12;"Berega";"Tanzania";"morpho + PCR cytb";"high";"Lecompte et al. 2005/BeBIF provider";"NA";;
"Mastomys natalensis";-7.97;33.3;"Chanombe";"Tanzania";"morpho";"high";"Odhiambo et al. 2005";"NA";;
"Mastomys natalensis";-8.53;33.41;"Chunya";"Tanzania";"morpho";"high";"Odhiambo et al. 2005";"NA";;
"Mastomys natalensis";-4.07;35.38;"Dongobesh";"Tanzania";"morpho";"high";"Makundi et al. 2008";"NA";;
"Mastomys natalensis";-6.93;31.18;"Ikuu";"Tanzania";"morpho";"high";"Caro 2001";"NA";;
"Mastomys natalensis";-10.02;38.42;"Kibutuka";"Tanzania";"morpho";"high";"Mwanjabe et al. 2002";"NA";;
"Mastomys natalensis";-3.32;37.68;"Lake Chala";"Tanzania";"morpho";"high";"Mulungu et al. 2008";"NA";;
"Mastomys natalensis";-10.33;38.42;"Lionja";"Tanzania";"morpho";"high";"Mwanjabe et al. 2002";"NA";;
"Mastomys natalensis";-4.7;38.3;"Magamba";"Tanzania";"morpho";"high";"Makundi et al. 2005";"NA";;
"Mastomys natalensis";-6.32;37.38;"Makuyu";"Tanzania";"morpho";"high";"Makundi et al. 2005";"NA";;
"Mastomys natalensis";-4.61;38.23;"Manolo";"Tanzania";"morpho";"high";"Makundi et al. 2005";"NA";;
"Mastomys natalensis";-4.52;36.47;"Matongolo";"Tanzania";"morpho + chrom";"high";"Corti et al. 2005";"NA";;
"Mastomys natalensis";-6.77;37.9;"Mikese";"Tanzania";"morpho";"high";"Ngowo et al. 2005";"NA";;
"Mastomys natalensis";-7.1;31.07;"Mitumba";"Tanzania";"morpho";"high";"Caro 2001";"NA";;
"Mastomys natalensis";-6.72;31.12;"Mivunda";"Tanzania";"morpho";"high";"Caro 2001";"NA";;
"Mastomys natalensis";-6.83;37.63;"Morogoro";"Tanzania";"morpho";"high";"Leirs 1994, Mulingen et al. 2005";"NA";;
"Mastomys natalensis";-5.15;30.38;"Msimba";"Tanzania";"morpho + PCR cytb";"high";"Lecompte et al. 2005";"NA";;
"Mastomys natalensis";-7.77;35.7;"Mulenge forest";"Tanzania";"morpho + PCR AP5";"high";"Steppan et al. 2005";"NA";;
"Mastomys natalensis";-9.83;39.78;"Nandagala";"Tanzania";"morpho";"high";"Mwanjabe et al. 2002";"NA";;
"Mastomys natalensis";-9.65;39.07;"Nanjirinji";"Tanzania";"morpho";"high";"Mwanjabe et al. 2002";"NA";;
"Mastomys natalensis";-10.25;38.7;"Ruponda";"Tanzania";"morpho";"high";"Mwanjabe et al. 2002";"NA";;
"Mastomys natalensis";-4.82;34.73;"Singida";"Tanzania";"morpho + chrom";"high";"Corti et al. 2005";"NA";;
"Mastomys natalensis";-4.75;38.5;"Usambara Mts";"Tanzania";"morpho + PCR AP5";"high";"Steppan et al. 2005";"NA";;
"Mastomys natalensis";-2.2667;34.85;"Banagi";"Tanzania";"morpho";"high";"BeBIF Provider";"NA";;
"Mastomys natalensis";-6.8044;37.7217;"Bigwa";"Tanzania";"morpho";"high";"BeBIF Provider";"NA";;
"Mastomys natalensis";-6.9;37.6667;"Bondwa";"Tanzania";"morpho";"high";"BeBIF Provider";"NA";;
"Mastomys natalensis";-10.7333;38.55;"Chingulungulu";"Tanzania";"morpho";"high";"BeBIF Provider";"NA";;
"Mastomys natalensis";-8.5167;33.5;"Chunya";"Tanzania";"morpho + PCR cytb";"high";"BeBIF Provider";"NA";;
"Mastomys natalensis";-6.4;37.6;"Dakawa";"Tanzania";"morpho + PCR cytb";"high";"BeBIF Provider";"NA";;
"Mastomys natalensis";-4.5667;38.2333;"Emau";"Tanzania";"morpho";"high";"BeBIF Provider";"NA";;
"Mastomys natalensis";-6.5092;37.3988;"Falkland";"Tanzania";"morpho";"high";"BeBIF Provider";"NA";;
"Mastomys natalensis";-4.4667;35.3833;"Gerodom";"Tanzania";"morpho";"high";"BeBIF Provider";"NA";;
"Mastomys natalensis";-4.7167;38.2333;"Gologolo";"Tanzania";"morpho";"high";"BeBIF Provider";"NA";;
"Mastomys natalensis";-4.4333;35.4;"Hanang";"Tanzania";"morpho";"high";"BeBIF Provider";"NA";;
"Mastomys natalensis";-9.1833;33.6833;"Ibumba";"Tanzania";"morpho";"high";"BeBIF Provider";"NA";;
"Mastomys natalensis";-7.8167;35.1667;"Idodi";"Tanzania";"morpho";"high";"BeBIF Provider";"NA";;
"Mastomys natalensis";-3.5167;37.7167;"Jipe";"Tanzania";"morpho + PCR cytb";"high";"BeBIF Provider";"NA";;
"Mastomys natalensis";-6.1937;37.3598;"Kambala-Dakawa";"Tanzania";"morpho";"high";"BeBIF Provider";"NA";;
"Mastomys natalensis";-2.6667;33.1333;"Kanyelele";"Tanzania";"morpho";"high";"BeBIF Provider";"NA";;
"Mastomys natalensis";-8.4667;31.1667;"Kasanga";"Tanzania";"morpho";"high";"BeBIF Provider";"NA";;
"Mastomys natalensis";-4.6333;35.3833;"Katesh";"Tanzania";"morpho";"high";"BeBIF Provider";"NA";;
"Mastomys natalensis";-6.8121;37.6782;"Kichangani";"Tanzania";"morpho";"high";"BeBIF Provider";"NA";;
"Mastomys natalensis";-7.1667;37.5;"Kidege";"Tanzania";"morpho";"high";"BeBIF Provider";"NA";;
"Mastomys natalensis";-7.6167;37.1333;"Kielezo";"Tanzania";"morpho";"high";"BeBIF Provider";"NA";;
"Mastomys natalensis";-6.4916;37.4179;"Kigurunyembe";"Tanzania";"morpho";"high";"BeBIF Provider";"NA";;
"Mastomys natalensis";-6.7699;37.6628;"Kihonda";"Tanzania";"morpho + PCR cytb";"high";"BeBIF Provider";"NA";;
"Mastomys natalensis";-6.8222;37.6829;"Kilakala";"Tanzania";"morpho";"high";"BeBIF Provider";"NA";;
"Mastomys natalensis";-6.5058;37.4003;"Kilimo";"Tanzania";"morpho";"high";"BeBIF Provider";"NA";;
"Mastomys natalensis";-7.7167;37.1333;"Kilombero";"Tanzania";"morpho";"high";"BeBIF Provider";"NA";;
"Mastomys natalensis";-6.8333;36.9833;"Kilossa tanganika terr";"Tanzania";"morpho";"high";"BeBIF Provider";"NA";;
"Mastomys natalensis";-6.9376;37.5355;"Kipera-Mlali";"Tanzania";"morpho";"high";"BeBIF Provider";"NA";;
"Mastomys natalensis";-4.5807;38.2695;"Kiranga";"Tanzania";"morpho";"high";"BeBIF Provider";"NA";;
"Mastomys natalensis";-4.3432;38.1613;"Kiranga";"Tanzania";"morpho";"high";"BeBIF Provider";"NA";;
"Mastomys natalensis";-4.1667;37.9833;"Kisiwani";"Tanzania";"morpho + PCR cytb";"high";"BeBIF Provider";"NA";;
"Mastomys natalensis";-7.8833;30.85;"Kisumbi";"Tanzania";"morpho";"high";"BeBIF Provider";"NA";;
"Mastomys natalensis";-6.7838;37.74;"Kitungwa";"Tanzania";"morpho";"high";"BeBIF Provider";"NA";;
"Mastomys natalensis";-6.8146;37.6996;"Kola hill";"Tanzania";"morpho";"high";"BeBIF Provider";"NA";;
"Mastomys natalensis";-6.6667;39.2167;"Kunduchi";"Tanzania";"morpho";"high";"BeBIF Provider";"NA";;
"Mastomys natalensis";-4.5833;38.25;"Longoi";"Tanzania";"morpho";"high";"BeBIF Provider";"NA";;
"Mastomys natalensis";-3.6833;37.5333;"Lwami";"Tanzania";"morpho + PCR cytb";"high";"BeBIF Provider";"NA";;
"Mastomys natalensis";-4.9667;38.3167;"Madala";"Tanzania";"morpho";"high";"BeBIF Provider";"NA";;
"Mastomys natalensis";-6.827;37.6809;"Madizini";"Tanzania";"morpho";"high";"BeBIF Provider";"NA";;
"Mastomys natalensis";-6.8245;37.6457;"Mafiga";"Tanzania";"morpho";"high";"BeBIF Provider";"NA";;
"Mastomys natalensis";-6.7918;37.6638;"Mafisa B";"Tanzania";"morpho";"high";"BeBIF Provider";"NA";;
"Mastomys natalensis";-6.843;37.6356;"Magadu";"Tanzania";"morpho";"high";"BeBIF Provider";"NA";;
"Mastomys natalensis";-4.7167;38.2833;"Magamba";"Tanzania";"morpho";"high";"BeBIF Provider";"NA";;
"Mastomys natalensis";-7.7667;34.2333;"Magangwe";"Tanzania";"morpho";"high";"BeBIF Provider";"NA";;
"Mastomys natalensis";-6.5134;37.3944;"Maji Street";"Tanzania";"morpho";"high";"BeBIF Provider";"NA";;
"Mastomys natalensis";-6.3833;39.5833;"Makunduchi";"Tanzania";"morpho";"high";"BeBIF Provider";"NA";;
"Mastomys natalensis";-7.3167;36.5333;"Malolo";"Tanzania";"morpho";"high";"BeBIF Provider";"NA";;
"Mastomys natalensis";-6.35;36.9167;"Mamiwa";"Tanzania";"morpho";"high";"BeBIF Provider";"NA";;
"Mastomys natalensis";-4.6;38.2333;"Manolo";"Tanzania";"morpho";"high";"BeBIF Provider";"NA";;
"Mastomys natalensis";-10.7274;38.807;"Masasi town";"Tanzania";"morpho";"high";"BeBIF Provider";"NA";;
"Mastomys natalensis";-5.7667;36.4667;"Matongolo";"Tanzania";"morpho";"high";"BeBIF Provider";"NA";;
"Mastomys natalensis";-6.7967;37.6351;"Mazimbu";"Tanzania";"morpho";"high";"BeBIF Provider";"NA";;
"Mastomys natalensis";-8.6833;34.4167;"Mbarali";"Tanzania";"morpho";"high";"BeBIF Provider";"NA";;
"Mastomys natalensis";-6.8833;37.35;"Mbete";"Tanzania";"morpho";"high";"BeBIF Provider";"NA";;
"Mastomys natalensis";-7.8667;31.6667;"Mbizi";"Tanzania";"morpho";"high";"BeBIF Provider";"NA";;
"Mastomys natalensis";-10.5833;38.55;"Mchonda";"Tanzania";"morpho";"high";"BeBIF Provider";"NA";;
"Mastomys natalensis";-3.25;36.75;"Mchonda";"Tanzania";"morpho";"high";"BeBIF Provider";"NA";;
"Mastomys natalensis";-7.05;37.5833;"Mgeta";"Tanzania";"morpho";"high";"BeBIF Provider";"NA";;
"Mastomys natalensis";-6.7667;37.9;"Mikese";"Tanzania";"morpho";"high";"BeBIF Provider";"NA";;
"Mastomys natalensis";-6.8785;37.5959;"Mindu";"Tanzania";"morpho";"high";"BeBIF Provider";"NA";;
"Mastomys natalensis";-6.8296;37.6528;"Misufini";"Tanzania";"morpho";"high";"BeBIF Provider";"NA";;
"Mastomys natalensis";-10.7565;38.5316;"Miwale village";"Tanzania";"morpho";"high";"BeBIF Provider";"NA";;
"Mastomys natalensis";-6.8181;37.6691;"Mji mpya";"Tanzania";"morpho";"high";"BeBIF Provider";"NA";;
"Mastomys natalensis";-6.7968;37.6746;"Mjimwema";"Tanzania";"morpho";"high";"BeBIF Provider";"NA";;
"Mastomys natalensis";-6.4305;37.379;"Mkundi";"Tanzania";"morpho";"high";"BeBIF Provider";"NA";;
"Mastomys natalensis";-6.9426;37.5331;"Mlali";"Tanzania";"morpho";"high";"BeBIF Provider";"NA";;
"Mastomys natalensis";-6.9667;37.55;"Mlali";"Tanzania";"morpho";"high";"BeBIF Provider";"NA";;
"Mastomys natalensis";-10.1167;39.4;"Mnara";"Tanzania";"morpho";"high";"BeBIF Provider";"NA";;
"Mastomys natalensis";-10.6167;39.2;"Mnima";"Tanzania";"morpho";"high";"BeBIF Provider";"NA";;
"Mastomys natalensis";-6.8833;37.6667;"Morningside";"Tanzania";"morpho";"high";"BeBIF Provider";"NA";;
"Mastomys natalensis";-3.3333;37.3333;"Moshi";"Tanzania";"morpho";"high";"BeBIF Provider";"NA";;
"Mastomys natalensis";-6.8267;37.66;"Msamvu";"Tanzania";"morpho";"high";"BeBIF Provider";"NA";;
"Mastomys natalensis";-7.5333;35.05;"Msembe";"Tanzania";"morpho";"high";"BeBIF Provider";"NA";;
"Mastomys natalensis";-10.7507;38.5313;"Msikisi village";"Tanzania";"morpho";"high";"BeBIF Provider";"NA";;
"Mastomys natalensis";-6.7333;37.05;"Msimba";"Tanzania";"morpho";"high";"BeBIF Provider";"NA";;
"Mastomys natalensis";-8.0667;31.9167;"Mtowisa";"Tanzania";"morpho";"high";"BeBIF Provider";"NA";;
"Mastomys natalensis";-8.6167;35.3667;"Mufindi";"Tanzania";"morpho";"high";"BeBIF Provider";"NA";;
"Mastomys natalensis";-10.9;37.4833;"Muhuwesi";"Tanzania";"morpho";"high";"BeBIF Provider";"NA";;
"Mastomys natalensis";-7.7;31.5667;"Muze";"Tanzania";"morpho + PCR cytb";"high";"BeBIF Provider";"NA";;
"Mastomys natalensis";-6.3333;35.8333;"Mvumi Mission";"Tanzania";"morpho";"high";"BeBIF Provider";"NA";;
"Mastomys natalensis";-7.45;35.0833;"Mwagusi";"Tanzania";"morpho";"high";"BeBIF Provider";"NA";;
"Mastomys natalensis";-2.5167;32.9;"Mwanza";"Tanzania";"morpho + PCR cytb";"high";"BeBIF Provider";"NA";;
"Mastomys natalensis";-3.1333;37.3333;"Mweka";"Tanzania";"morpho";"high";"BeBIF Provider";"NA";;
"Mastomys natalensis";-6.8151;37.6686;"Mwembesongo";"Tanzania";"morpho";"high";"BeBIF Provider";"NA";;
"Mastomys natalensis";-6.4951;37.4012;"Mwere";"Tanzania";"morpho";"high";"BeBIF Provider";"NA";;
"Mastomys natalensis";-7.6167;34.6333;"Mweyembe";"Tanzania";"morpho";"high";"BeBIF Provider";"NA";;
"Mastomys natalensis";-10.5833;35.4167;"Nakahuga";"Tanzania";"morpho";"high";"BeBIF Provider";"NA";;
"Mastomys natalensis";-6.8021;37.685;"Nanenane";"Tanzania";"morpho";"high";"BeBIF Provider";"NA";;
"Mastomys natalensis";-5.2333;36.5;"Ndaleta";"Tanzania";"morpho";"high";"BeBIF Provider";"NA";;
"Mastomys natalensis";-10.4797;39.0485;"Ndanda Liputu";"Tanzania";"morpho";"high";"BeBIF Provider";"NA";;
"Mastomys natalensis";-9.0167;33.0667;"Nditi";"Tanzania";"morpho";"high";"BeBIF Provider";"NA";;
"Mastomys natalensis";-4.4833;37.1667;"Ngasumet";"Tanzania";"morpho";"high";"BeBIF Provider";"NA";;
"Mastomys natalensis";-6.8274;37.6317;"Ngerengere";"Tanzania";"morpho";"high";"BeBIF Provider";"NA";;
"Mastomys natalensis";-6.7;37.6167;"Nguru ya ndege";"Tanzania";"morpho";"high";"BeBIF Provider";"NA";;
"Mastomys natalensis";-7.6833;37.1;"Nyange";"Tanzania";"morpho";"high";"BeBIF Provider";"NA";;
"Mastomys natalensis";-10.6333;35.45;"Peramiho village";"Tanzania";"morpho";"high";"BeBIF Provider";"NA";;
"Mastomys natalensis";-10.0667;38.95;"Ruangwa";"Tanzania";"morpho";"high";"BeBIF Provider";"NA";;
"Mastomys natalensis";-7.4167;31.9833;"Rukwa";"Tanzania";"morpho";"high";"BeBIF Provider";"NA";;
"Mastomys natalensis";-9.15;33.65;"Rungwe";"Tanzania";"morpho";"high";"BeBIF Provider";"NA";;
"Mastomys natalensis";-6.8252;37.6573;"Sabasaba";"Tanzania";"morpho";"high";"BeBIF Provider";"NA";;
"Mastomys natalensis";-4.0667;37.7333;"Same";"Tanzania";"morpho";"high";"BeBIF Provider";"NA";;
"Mastomys natalensis";-6.8833;37.5333;"Sangasanga";"Tanzania";"morpho";"high";"BeBIF Provider";"NA";;
"Mastomys natalensis";-9.1833;33.65;"Suma";"Tanzania";"morpho";"high";"BeBIF Provider";"NA";;
"Mastomys natalensis";-5.4167;32.8167;"Tabora-Inala";"Tanzania";"morpho + PCR cytb";"high";"BeBIF Provider";"NA";;
"Mastomys natalensis";-7.8333;35.6667;"Tagamenda";"Tanzania";"morpho";"high";"BeBIF Provider";"NA";;
"Mastomys natalensis";-6.8201;37.6628;"Tanesco";"Tanzania";"morpho";"high";"BeBIF Provider";"NA";;
"Mastomys natalensis";-10.5833;35.65;"Tanga";"Tanzania";"morpho";"high";"BeBIF Provider";"NA";;
"Mastomys natalensis";-5.7833;39.3;"Tazari";"Tanzania";"morpho";"high";"BeBIF Provider";"NA";;
"Mastomys natalensis";-6.5123;37.3977;"Tiba Road";"Tanzania";"morpho";"high";"BeBIF Provider";"NA";;
"Mastomys natalensis";-3.2667;36.6833;"Tpri";"Tanzania";"morpho";"high";"BeBIF Provider";"NA";;
"Mastomys natalensis";-4.6667;38.25;"Viti";"Tanzania";"morpho";"high";"BeBIF Provider";"NA";;
"Mastomys natalensis";-6.2242;37.2751;"Wami-";"Tanzania";"morpho";"high";"BeBIF Provider";"NA";;
"Mastomys natalensis";7.5167;1.0167;"Adina";"Togo";"morpho";"low";"BeBIF Provider";"NA";;
"Mastomys natalensis";6.85;0.7333;"Agou";"Togo";"morpho";"low";"BeBIF Provider";"NA";;
"Mastomys natalensis";7.5667;0.9833;"Akposso";"Togo";"morpho";"low";"BeBIF Provider";"NA";;
"Mastomys natalensis";9.25;1.2;"Aledjo";"Togo";"morpho";"low";"BeBIF Provider";"NA";;
"Mastomys natalensis";7.2;0.7;"Apeyeme";"Togo";"morpho";"low";"BeBIF Provider";"NA";;
"Mastomys natalensis";7.6;0.6167;"Badou";"Togo";"morpho";"low";"BeBIF Provider";"NA";;
"Mastomys natalensis";7.5833;0.6;"Badou - anonoe";"Togo";"morpho";"low";"BeBIF Provider";"NA";;
"Mastomys natalensis";7.2333;0.6833;"Dzogbegan";"Togo";"morpho";"low";"BeBIF Provider";"NA";;
"Mastomys natalensis";7.4833;0.9667;"Edifou";"Togo";"morpho";"low";"BeBIF Provider";"NA";;
"Mastomys natalensis";7.55;1.0333;"Evou";"Togo";"morpho";"low";"BeBIF Provider";"NA";;
"Mastomys natalensis";8.7;0.7833;"Fazao";"Togo";"morpho";"low";"BeBIF Provider";"NA";;
"Mastomys natalensis";7.5167;1.1833;"Kamina";"Togo";"morpho";"low";"BeBIF Provider";"NA";;
"Mastomys natalensis";7.8;1.3;"Kolokope";"Togo";"morpho";"low";"BeBIF Provider";"NA";;
"Mastomys natalensis";7.5167;0.9833;"Koutoukpa";"Togo";"morpho";"low";"BeBIF Provider";"NA";;
"Mastomys natalensis";10.3;0.4667;"Mango";"Togo";"morpho";"low";"BeBIF Provider";"NA";;
"Mastomys natalensis";6.95;0.5833;"Misahohe";"Togo";"morpho";"low";"BeBIF Provider";"NA";;
"Mastomys natalensis";10.8833;0.4;"Namoundjoga";"Togo";"morpho";"low";"BeBIF Provider";"NA";;
"Mastomys natalensis";10.9167;0.15;"Nanergou";"Togo";"morpho";"low";"BeBIF Provider";"NA";;
"Mastomys natalensis";6.2333;1.4833;"Togoville";"Togo";"morpho";"low";"BeBIF Provider";"NA";;
"Mastomys natalensis";0.3667;30;"Entebbe";"Uganda";"morpho";"low";"BeBIF Provider";"NA";;
"Mastomys natalensis";-0.3;29.58;"Bwindi Impenetrable NP";"Uganda";"morpho";"low";"Kasangaki 2003";"NA";;
"Mastomys natalensis";-13.75;24.95;"Mutoma";"Zambia";"morpho + chrom + PCR cytb";"high";"Corti et al. 2005/BEBIF provider";"NA";;
"Mastomys natalensis";-12.55;25.68;"Meheba";"Zambia";"morpho + chrom + PCR cytb";"high";"Corti et al. 2005/BEBIF provider";"NA";;
"Mastomys natalensis";-15.55;28.2833;"Chilanga";"Zambia";"morpho";"high";"BeBIF Provider";"NA";;
"Mastomys natalensis";-13.5833;24.2167;"Kabompo boma";"Zambia";"morpho";"high";"BeBIF Provider";"NA";;
"Mastomys natalensis";-13.4667;25.8333;"Kasempa";"Zambia";"morpho";"high";"BeBIF Provider";"NA";;
"Mastomys natalensis";-11.1167;24.1;"Zambeze tete";"Zambia";"morpho";"high";"BeBIF Provider";"NA";;
"Mastomys natalensis";-17.69;31.11;"Hatcliffe";"Zimbabwe";"morpho + PCR cytb";"high";"BeBIF Provider";"NA";;
"Mastomys natalensis";-17.86;31.04;"Mbare";"Zimbabwe";"morpho + PCR cytb";"high";"BeBIF Provider";"NA";;
"Mastomys natalensis";-20.42;28.28;"Norton";"Zimbabwe";"morpho + skull";"high";"Bronner, G. N., et al. 2007 Oct. Nongeographic cranial variation in two medically important rodents from South Africa, Mastomys natalensis and Mastomys coucha. Journal of Mammalogy. 88 (5): 1179-1194.";"NA";;
"Mastomys natalensis";6.794;-7.2972;"Blodi, Duékoué";"Ivory Coast";"morpho + PCR cytb";"high";"Colangelo, Paolo, et al. \""A mitochondrial phylogeographic scenario for the most widespread African rodent, Mastomys natalensis.\"" Biological Journal of the Linnean Society 108.4 (2013): 901-916.";"NA";"http://earth-info.nga.mil/gns/html/namefiles.htm";
"Mastomys natalensis";6.133;-5.9518;"Menekré, Gagnoa";"Ivory Coast";"morpho + PCR cytb";"high";"Colangelo, Paolo, et al. \""A mitochondrial phylogeographic scenario for the most widespread African rodent, Mastomys natalensis.\"" Biological Journal of the Linnean Society 108.4 (2013): 901-916.";1;"geopy";
"Mastomys natalensis";9.72;-11.03;"Gbetaya";"Guinea";"morpho + PCR cytb";"high";"Colangelo, Paolo, et al. \""A mitochondrial phylogeographic scenario for the most widespread African rodent, Mastomys natalensis.\"" Biological Journal of the Linnean Society 108.4 (2013): 901-916.";-1;"from FC2009";
"Mastomys natalensis";5.8294;-5.3592;"Gbagoubé, Divo";"Ivory Coast";"morpho + PCR cytb";"high";"Colangelo, Paolo, et al. \""A mitochondrial phylogeographic scenario for the most widespread African rodent, Mastomys natalensis.\"" Biological Journal of the Linnean Society 108.4 (2013): 901-916.";1;"geopy";
"Mastomys natalensis";10.0591;-10.5853;"Bantou";"Guinea";"morpho + PCR cytb";"high";"Colangelo, Paolo, et al. \""A mitochondrial phylogeographic scenario for the most widespread African rodent, Mastomys natalensis.\"" Biological Journal of the Linnean Society 108.4 (2013): 901-916.";0;"geopy";
"Mastomys natalensis";5.8956;-4.8251;"Ahouakro, Tiassalé";"Ivory Coast";"morpho + PCR cytb";"high";"Colangelo, Paolo, et al. \""A mitochondrial phylogeographic scenario for the most widespread African rodent, Mastomys natalensis.\"" Biological Journal of the Linnean Society 108.4 (2013): 901-916.";1;"geopy";
"Mastomys natalensis";11.0836;-12.2975;"Gagal";"Guinea";"morpho + PCR cytb";"high";"Colangelo, Paolo, et al. \""A mitochondrial phylogeographic scenario for the most widespread African rodent, Mastomys natalensis.\"" Biological Journal of the Linnean Society 108.4 (2013): 901-916.";-1;"from FC2009";
"Mastomys natalensis";8.1273;-2.6508;"Sanguiebo";"Ivory Coast";"morpho + PCR cytb";"high";"Colangelo, Paolo, et al. \""A mitochondrial phylogeographic scenario for the most widespread African rodent, Mastomys natalensis.\"" Biological Journal of the Linnean Society 108.4 (2013): 901-916.";0;"geopy";
"Mastomys natalensis";10.0006;-10.9728;"Tanganya";"Guinea";"morpho + PCR cytb";"high";"Colangelo, Paolo, et al. \""A mitochondrial phylogeographic scenario for the most widespread African rodent, Mastomys natalensis.\"" Biological Journal of the Linnean Society 108.4 (2013): 901-916.";"NA";"from FC2009";
"Mastomys natalensis";10.8095;-10.3959;"Gania";"Guinea";"morpho + PCR cytb";"high";"Colangelo, Paolo, et al. \""A mitochondrial phylogeographic scenario for the most widespread African rodent, Mastomys natalensis.\"" Biological Journal of the Linnean Society 108.4 (2013): 901-916.";0;"geopy";
"Mastomys natalensis";12.9523;-8.1743;"Kalifabougou";"Mali";"morpho + PCR cytb";"high";"Colangelo, Paolo, et al. \""A mitochondrial phylogeographic scenario for the most widespread African rodent, Mastomys natalensis.\"" Biological Journal of the Linnean Society 108.4 (2013): 901-916.";0;"geopy";
"Mastomys natalensis";14.9995;-7.6689;"Dilly";"Mali";"morpho + PCR cytb";"high";"Colangelo, Paolo, et al. \""A mitochondrial phylogeographic scenario for the most widespread African rodent, Mastomys natalensis.\"" Biological Journal of the Linnean Society 108.4 (2013): 901-916.";0;"geopy";
"Mastomys natalensis";12.8096;-6.0432;"Niamana (Missira)";"Mali";"morpho + PCR cytb";"high";"Colangelo, Paolo, et al. \""A mitochondrial phylogeographic scenario for the most widespread African rodent, Mastomys natalensis.\"" Biological Journal of the Linnean Society 108.4 (2013): 901-916.";2;"geopy";
"Mastomys natalensis";13.1409;-3.4509;"Toma-île";"Burkina Faso";"morpho + PCR cytb";"high";"Colangelo, Paolo, et al. \""A mitochondrial phylogeographic scenario for the most widespread African rodent, Mastomys natalensis.\"" Biological Journal of the Linnean Society 108.4 (2013): 901-916.";0;"geopy";
"Mastomys natalensis";14.4636;0.7937;"Tara";"Niger";"morpho + PCR cytb";"high";"Colangelo, Paolo, et al. \""A mitochondrial phylogeographic scenario for the most widespread African rodent, Mastomys natalensis.\"" Biological Journal of the Linnean Society 108.4 (2013): 901-916.";0;"geopy";
"Mastomys natalensis";6.1199;-4.8724;"Ahouakro, Tiassalé";"Ivory Coast";"morpho + PCR cytb";"high";"Colangelo, Paolo, et al. \""A mitochondrial phylogeographic scenario for the most widespread African rodent, Mastomys natalensis.\"" Biological Journal of the Linnean Society 108.4 (2013): 901-916.";"NA";"http://earth-info.nga.mil/gns/html/namefiles.htm";
"Mastomys natalensis";11.6798;-8.6554;"Samaya";"Mali";"morpho + PCR cytb";"high";"Colangelo, Paolo, et al. \""A mitochondrial phylogeographic scenario for the most widespread African rodent, Mastomys natalensis.\"" Biological Journal of the Linnean Society 108.4 (2013): 901-916.";0;"geopy";
"Mastomys natalensis";12.8851;-12.2868;"Kédougou";"Senegal";"morpho + PCR cytb";"high";"Colangelo, Paolo, et al. \""A mitochondrial phylogeographic scenario for the most widespread African rodent, Mastomys natalensis.\"" Biological Journal of the Linnean Society 108.4 (2013): 901-916.";0;"geopy";
"Mastomys natalensis";8.0869;-8.9139;"Bhoita";"Guinea";"morpho + PCR cytb";"high";"Colangelo, Paolo, et al. \""A mitochondrial phylogeographic scenario for the most widespread African rodent, Mastomys natalensis.\"" Biological Journal of the Linnean Society 108.4 (2013): 901-916.";"NA";"from FC2009";
"Mastomys natalensis";10.63;1.8245;"Goutéré";"Benin";"morpho + PCR cytb";"high";"Colangelo, Paolo, et al. \""A mitochondrial phylogeographic scenario for the most widespread African rodent, Mastomys natalensis.\"" Biological Journal of the Linnean Society 108.4 (2013): 901-916.";"NA";"http://earth-info.nga.mil/gns/html/namefiles.htm";
"Mastomys natalensis";8.9915;1.9605;"Igbéré";"Benin";"morpho + PCR cytb";"high";"Colangelo, Paolo, et al. \""A mitochondrial phylogeographic scenario for the most widespread African rodent, Mastomys natalensis.\"" Biological Journal of the Linnean Society 108.4 (2013): 901-916.";0;"geopy";
"Mastomys natalensis";13.1448;1.9589;"Piliki";"Niger";"morpho + PCR cytb";"high";"Colangelo, Paolo, et al. \""A mitochondrial phylogeographic scenario for the most widespread African rodent, Mastomys natalensis.\"" Biological Journal of the Linnean Society 108.4 (2013): 901-916.";0;"geopy";
"Mastomys natalensis";7.9883;1.9833;"Doyïssa";"Benin";"morpho + PCR cytb";"high";"Colangelo, Paolo, et al. \""A mitochondrial phylogeographic scenario for the most widespread African rodent, Mastomys natalensis.\"" Biological Journal of the Linnean Society 108.4 (2013): 901-916.";0;"geopy";
"Mastomys natalensis";44.6572;-65.5896;"Denguédou";"Guinea";"morpho + PCR cytb";"high";"Colangelo, Paolo, et al. \""A mitochondrial phylogeographic scenario for the most widespread African rodent, Mastomys natalensis.\"" Biological Journal of the Linnean Society 108.4 (2013): 901-916.";0;"geopy";
"Mastomys natalensis";9.6453;-8.9456;"Franfina";"Guinea";"morpho + PCR cytb";"high";"Colangelo, Paolo, et al. \""A mitochondrial phylogeographic scenario for the most widespread African rodent, Mastomys natalensis.\"" Biological Journal of the Linnean Society 108.4 (2013): 901-916.";"NA";"from FC2009";
"Mastomys natalensis";8.6551;-3.7824;"Kakpin";"Ivory Coast";"morpho + PCR cytb";"high";"Colangelo, Paolo, et al. \""A mitochondrial phylogeographic scenario for the most widespread African rodent, Mastomys natalensis.\"" Biological Journal of the Linnean Society 108.4 (2013): 901-916.";0;"geopy";
"Mastomys natalensis";10.4958;-9.0178;"Kodoko";"Guinea";"morpho + PCR cytb";"high";"Colangelo, Paolo, et al. \""A mitochondrial phylogeographic scenario for the most widespread African rodent, Mastomys natalensis.\"" Biological Journal of the Linnean Society 108.4 (2013): 901-916.";-1;"geopy";
"Mastomys natalensis";7.6348;2.6864;"Koto";"Benin";"morpho + PCR cytb";"high";"Colangelo, Paolo, et al. \""A mitochondrial phylogeographic scenario for the most widespread African rodent, Mastomys natalensis.\"" Biological Journal of the Linnean Society 108.4 (2013): 901-916.";0;"geopy";
"Mastomys natalensis";15.0623;-2.7896;"Gono";"Mali";"morpho + PCR cytb";"high";"Colangelo, Paolo, et al. \""A mitochondrial phylogeographic scenario for the most widespread African rodent, Mastomys natalensis.\"" Biological Journal of the Linnean Society 108.4 (2013): 901-916.";0;"geopy";
"Mastomys natalensis";12.0118;-5.703;"Kouoro";"Mali";"morpho + PCR cytb";"high";"Colangelo, Paolo, et al. \""A mitochondrial phylogeographic scenario for the most widespread African rodent, Mastomys natalensis.\"" Biological Journal of the Linnean Society 108.4 (2013): 901-916.";0;"geopy";
"Mastomys natalensis";14.0901;2.1985;"Tiloa";"Niger";"morpho + PCR cytb";"high";"Colangelo, Paolo, et al. \""A mitochondrial phylogeographic scenario for the most widespread African rodent, Mastomys natalensis.\"" Biological Journal of the Linnean Society 108.4 (2013): 901-916.";0;"geopy";
"Mastomys natalensis";7.1042;1.8644;"Lanta";"Benin";"morpho + PCR cytb";"high";"Colangelo, Paolo, et al. \""A mitochondrial phylogeographic scenario for the most widespread African rodent, Mastomys natalensis.\"" Biological Journal of the Linnean Society 108.4 (2013): 901-916.";0;"geopy";
"Mastomys natalensis";14.7095;0.0949;"Markoye";"Burkina Faso";"morpho + PCR cytb";"high";"Colangelo, Paolo, et al. \""A mitochondrial phylogeographic scenario for the most widespread African rodent, Mastomys natalensis.\"" Biological Journal of the Linnean Society 108.4 (2013): 901-916.";0;"geopy";
"Mastomys natalensis";12.2994;-8.7747;"Massakoroma";"Mali";"morpho + PCR cytb";"high";"Colangelo, Paolo, et al. \""A mitochondrial phylogeographic scenario for the most widespread African rodent, Mastomys natalensis.\"" Biological Journal of the Linnean Society 108.4 (2013): 901-916.";-1;"from FC2009";
"Mastomys natalensis";13.5248;2.1098;"Niamey";"Niger";"morpho + PCR cytb";"high";"Colangelo, Paolo, et al. \""A mitochondrial phylogeographic scenario for the most widespread African rodent, Mastomys natalensis.\"" Biological Journal of the Linnean Society 108.4 (2013): 901-916.";0;"geopy";
"Mastomys natalensis";14.729;0.6743;"Gaya";"Niger";"morpho + PCR cytb";"high";"Colangelo, Paolo, et al. \""A mitochondrial phylogeographic scenario for the most widespread African rodent, Mastomys natalensis.\"" Biological Journal of the Linnean Society 108.4 (2013): 901-916.";0;"geopy";
"Mastomys natalensis";8.6136;-9.4742;"Sangassou";"Guinea";"morpho + PCR cytb";"high";"Colangelo, Paolo, et al. \""A mitochondrial phylogeographic scenario for the most widespread African rodent, Mastomys natalensis.\"" Biological Journal of the Linnean Society 108.4 (2013): 901-916.";-1;"from FC2009";
"Mastomys natalensis";11.5952;-9.069;"Saourou";"Guinea";"morpho + PCR cytb";"high";"Colangelo, Paolo, et al. \""A mitochondrial phylogeographic scenario for the most widespread African rodent, Mastomys natalensis.\"" Biological Journal of the Linnean Society 108.4 (2013): 901-916.";0;"geopy";
"Mastomys natalensis";12.9074;14.8392;"Baltram";"Chad";"morpho + PCR cytb";"high";"Colangelo, Paolo, et al. \""A mitochondrial phylogeographic scenario for the most widespread African rodent, Mastomys natalensis.\"" Biological Journal of the Linnean Society 108.4 (2013): 901-916.";0;"geopy";
"Mastomys natalensis";12.84;14.7632;"Karal";"Chad";"morpho + PCR cytb";"high";"Colangelo, Paolo, et al. \""A mitochondrial phylogeographic scenario for the most widespread African rodent, Mastomys natalensis.\"" Biological Journal of the Linnean Society 108.4 (2013): 901-916.";0;"geopy";
"Mastomys natalensis";7.6675;15.9444;"Bol";"Chad";"morpho + PCR cytb";"high";"Colangelo, Paolo, et al. \""A mitochondrial phylogeographic scenario for the most widespread African rodent, Mastomys natalensis.\"" Biological Journal of the Linnean Society 108.4 (2013): 901-916.";0;"geopy";
"Mastomys natalensis";5.8442;10.2593;"Awing, Mt Léfo";"Cameroon";"morpho + PCR cytb";"high";"Colangelo, Paolo, et al. \""A mitochondrial phylogeographic scenario for the most widespread African rodent, Mastomys natalensis.\"" Biological Journal of the Linnean Society 108.4 (2013): 901-916.";"NA";"http://earth-info.nga.mil/gns/html/namefiles.htm";
"Mastomys natalensis";12.5119;14.5952;"Yik";"Cameroon";"morpho + PCR cytb";"high";"Colangelo, Paolo, et al. \""A mitochondrial phylogeographic scenario for the most widespread African rodent, Mastomys natalensis.\"" Biological Journal of the Linnean Society 108.4 (2013): 901-916.";0;"geopy";
"Mastomys natalensis";12.5349;14.6148;"Aboki 2 (Yik)";"Cameroon";"morpho + PCR cytb";"high";"Colangelo, Paolo, et al. \""A mitochondrial phylogeographic scenario for the most widespread African rodent, Mastomys natalensis.\"" Biological Journal of the Linnean Society 108.4 (2013): 901-916.";"NA";"http://earth-info.nga.mil/gns/html/namefiles.htm";
"Mastomys natalensis";8.0271;13.1909;"Zéra";"Cameroon";"morpho + PCR cytb";"high";"Colangelo, Paolo, et al. \""A mitochondrial phylogeographic scenario for the most widespread African rodent, Mastomys natalensis.\"" Biological Journal of the Linnean Society 108.4 (2013): 901-916.";0;"geopy";
"Mastomys natalensis";10.6208;14.4124;"Kongola";"Cameroon";"morpho + PCR cytb";"high";"Colangelo, Paolo, et al. \""A mitochondrial phylogeographic scenario for the most widespread African rodent, Mastomys natalensis.\"" Biological Journal of the Linnean Society 108.4 (2013): 901-916.";0;"geopy";
"Mastomys natalensis";10.8417;14.9526;"Maga";"Cameroon";"morpho + PCR cytb";"high";"Colangelo, Paolo, et al. \""A mitochondrial phylogeographic scenario for the most widespread African rodent, Mastomys natalensis.\"" Biological Journal of the Linnean Society 108.4 (2013): 901-916.";0;"geopy";
"Mastomys natalensis";4.2174;9.1727;"Mongom";"Cameroon";"morpho + PCR cytb";"high";"Colangelo, Paolo, et al. \""A mitochondrial phylogeographic scenario for the most widespread African rodent, Mastomys natalensis.\"" Biological Journal of the Linnean Society 108.4 (2013): 901-916.";-1;"google";"google search yields mt cameroon"
"Mastomys natalensis";-4.3217;15.3126;"Kinshasa";"DRC";"morpho + PCR cytb";"high";"Colangelo, Paolo, et al. \""A mitochondrial phylogeographic scenario for the most widespread African rodent, Mastomys natalensis.\"" Biological Journal of the Linnean Society 108.4 (2013): 901-916.";0;"geopy";
"Mastomys natalensis";13.4072;7.1389;"Djirataoua";"Niger";"morpho + PCR cytb";"high";"Colangelo, Paolo, et al. \""A mitochondrial phylogeographic scenario for the most widespread African rodent, Mastomys natalensis.\"" Biological Journal of the Linnean Society 108.4 (2013): 901-916.";"NA";"http://earth-info.nga.mil/gns/html/namefiles.htm";
"Mastomys natalensis";4.8236;9.6801;"Nyasoso";"Cameroon";"morpho + PCR cytb";"high";"Colangelo, Paolo, et al. \""A mitochondrial phylogeographic scenario for the most widespread African rodent, Mastomys natalensis.\"" Biological Journal of the Linnean Society 108.4 (2013): 901-916.";0;"geopy";
"Mastomys natalensis";-2.9156;15.6358;"Réserve de la Léfini, Mbouambe Lefini";"Congo";"morpho + PCR cytb";"high";"Colangelo, Paolo, et al. \""A mitochondrial phylogeographic scenario for the most widespread African rodent, Mastomys natalensis.\"" Biological Journal of the Linnean Society 108.4 (2013): 901-916.";"NA";"http://earth-info.nga.mil/gns/html/namefiles.htm";
"Mastomys natalensis";0.5184;25.2057;"Kisangani";"DRC";"morpho + PCR cytb";"high";"Colangelo, Paolo, et al. \""A mitochondrial phylogeographic scenario for the most widespread African rodent, Mastomys natalensis.\"" Biological Journal of the Linnean Society 108.4 (2013): 901-916.";0;"geopy";
"Mastomys natalensis";1.0181;35.0002;"Kitale";"Kenya";"morpho + PCR cytb";"high";"Colangelo, Paolo, et al. \""A mitochondrial phylogeographic scenario for the most widespread African rodent, Mastomys natalensis.\"" Biological Journal of the Linnean Society 108.4 (2013): 901-916.";0;"geopy";
"Mastomys natalensis";1.0763;34.8545;"Endebess";"Kenya";"morpho + PCR cytb";"high";"Colangelo, Paolo, et al. \""A mitochondrial phylogeographic scenario for the most widespread African rodent, Mastomys natalensis.\"" Biological Journal of the Linnean Society 108.4 (2013): 901-916.";0;"geopy";
"Mastomys natalensis";3.7281;17.5544;"Bakota";"RCA";"morpho + PCR cytb";"high";"Colangelo, Paolo, et al. \""A mitochondrial phylogeographic scenario for the most widespread African rodent, Mastomys natalensis.\"" Biological Journal of the Linnean Society 108.4 (2013): 901-916.";-1;"Google";
"Mastomys natalensis";-0.1724;34.919;"Ahero";"Kenya";"morpho + PCR cytb";"high";"Colangelo, Paolo, et al. \""A mitochondrial phylogeographic scenario for the most widespread African rodent, Mastomys natalensis.\"" Biological Journal of the Linnean Society 108.4 (2013): 901-916.";0;"geopy";
"Mastomys natalensis";-7.4264;37.7006;"Dakawa";"Tanzania";"morpho + PCR cytb";"high";"Colangelo, Paolo, et al. \""A mitochondrial phylogeographic scenario for the most widespread African rodent, Mastomys natalensis.\"" Biological Journal of the Linnean Society 108.4 (2013): 901-916.";0;"geopy";
"Mastomys natalensis";-7.6708;31.5511;"Mt. Muze";"Tanzania";"morpho + PCR cytb";"high";"Colangelo, Paolo, et al. \""A mitochondrial phylogeographic scenario for the most widespread African rodent, Mastomys natalensis.\"" Biological Journal of the Linnean Society 108.4 (2013): 901-916.";0;"geopy";
"Mastomys natalensis";-3.2434;36.7498;"Mt. Meru";"Tanzania";"morpho + PCR cytb";"high";"Colangelo, Paolo, et al. \""A mitochondrial phylogeographic scenario for the most widespread African rodent, Mastomys natalensis.\"" Biological Journal of the Linnean Society 108.4 (2013): 901-916.";0;"geopy";
"Mastomys natalensis";-3.3486;37.3435;"Moshi";"Tanzania";"morpho + PCR cytb";"high";"Colangelo, Paolo, et al. \""A mitochondrial phylogeographic scenario for the most widespread African rodent, Mastomys natalensis.\"" Biological Journal of the Linnean Society 108.4 (2013): 901-916.";0;"geopy";
"Mastomys natalensis";-4.0682;37.7438;"Same";"Tanzania";"morpho + PCR cytb";"high";"Colangelo, Paolo, et al. \""A mitochondrial phylogeographic scenario for the most widespread African rodent, Mastomys natalensis.\"" Biological Journal of the Linnean Society 108.4 (2013): 901-916.";0;"geopy";
"Mastomys natalensis";-6.1825;37.1387;"Berega";"Tanzania";"morpho + PCR cytb";"high";"Colangelo, Paolo, et al. \""A mitochondrial phylogeographic scenario for the most widespread African rodent, Mastomys natalensis.\"" Biological Journal of the Linnean Society 108.4 (2013): 901-916.";0;"geopy";
"Mastomys natalensis";-1.2833;36.8172;"Nairobi";"Kenya";"morpho + PCR cytb";"high";"Colangelo, Paolo, et al. \""A mitochondrial phylogeographic scenario for the most widespread African rodent, Mastomys natalensis.\"" Biological Journal of the Linnean Society 108.4 (2013): 901-916.";0;"geopy";
"Mastomys natalensis";-3.4;37.6833;"Taveta";"Kenya";"morpho + PCR cytb";"high";"Colangelo, Paolo, et al. \""A mitochondrial phylogeographic scenario for the most widespread African rodent, Mastomys natalensis.\"" Biological Journal of the Linnean Society 108.4 (2013): 901-916.";0;"geopy";
"Mastomys natalensis";-1.961;30.004;"Ruliba";"Rwanda";"morpho + PCR cytb";"high";"Colangelo, Paolo, et al. \""A mitochondrial phylogeographic scenario for the most widespread African rodent, Mastomys natalensis.\"" Biological Journal of the Linnean Society 108.4 (2013): 901-916.";0;"geopy";
"Mastomys natalensis";-2.5197;32.9014;"Mwanza";"Tanzania";"morpho + PCR cytb";"high";"Colangelo, Paolo, et al. \""A mitochondrial phylogeographic scenario for the most widespread African rodent, Mastomys natalensis.\"" Biological Journal of the Linnean Society 108.4 (2013): 901-916.";0;"geopy";
"Mastomys natalensis";-6.395;37.3326;"Matongolo";"Tanzania";"morpho + PCR cytb";"high";"Colangelo, Paolo, et al. \""A mitochondrial phylogeographic scenario for the most widespread African rodent, Mastomys natalensis.\"" Biological Journal of the Linnean Society 108.4 (2013): 901-916.";0;"geopy";
"Mastomys natalensis";-5.6881;36.3998;"Zoissa";"Tanzania";"morpho + PCR cytb";"high";"Colangelo, Paolo, et al. \""A mitochondrial phylogeographic scenario for the most widespread African rodent, Mastomys natalensis.\"" Biological Journal of the Linnean Society 108.4 (2013): 901-916.";0;"geopy";
"Mastomys natalensis";-5.2;36.4667;"Ndaleta";"Tanzania";"morpho + PCR cytb";"high";"Colangelo, Paolo, et al. \""A mitochondrial phylogeographic scenario for the most widespread African rodent, Mastomys natalensis.\"" Biological Journal of the Linnean Society 108.4 (2013): 901-916.";"NA";"http://earth-info.nga.mil/gns/html/namefiles.htm";"found Ndaleta Hills"
"Mastomys natalensis";-5.0386;34.6542;"Singida";"Tanzania";"morpho + PCR cytb";"high";"Colangelo, Paolo, et al. \""A mitochondrial phylogeographic scenario for the most widespread African rodent, Mastomys natalensis.\"" Biological Journal of the Linnean Society 108.4 (2013): 901-916.";0;"geopy";
"Mastomys natalensis";-4.1344;37.953;"Kisiwani";"Tanzania";"morpho + PCR cytb";"high";"Colangelo, Paolo, et al. \""A mitochondrial phylogeographic scenario for the most widespread African rodent, Mastomys natalensis.\"" Biological Journal of the Linnean Society 108.4 (2013): 901-916.";0;"geopy";
"Mastomys natalensis";-3.5701;37.7337;"Jipe";"Tanzania";"morpho + PCR cytb";"high";"Colangelo, Paolo, et al. \""A mitochondrial phylogeographic scenario for the most widespread African rodent, Mastomys natalensis.\"" Biological Journal of the Linnean Society 108.4 (2013): 901-916.";0;"geopy";
"Mastomys natalensis";-5.0202;32.8098;"Tabora";"Tanzania";"morpho + PCR cytb";"high";"Colangelo, Paolo, et al. \""A mitochondrial phylogeographic scenario for the most widespread African rodent, Mastomys natalensis.\"" Biological Journal of the Linnean Society 108.4 (2013): 901-916.";0;"geopy";
"Mastomys natalensis";-7.7787;35.1994;"Idodi";"Tanzania";"morpho + PCR cytb";"high";"Colangelo, Paolo, et al. \""A mitochondrial phylogeographic scenario for the most widespread African rodent, Mastomys natalensis.\"" Biological Journal of the Linnean Society 108.4 (2013): 901-916.";0;"geopy";
"Mastomys natalensis";-0.9006;37.1873;"Makuyu-Milama";"Tanzania";"morpho + PCR cytb";"high";"Colangelo, Paolo, et al. \""A mitochondrial phylogeographic scenario for the most widespread African rodent, Mastomys natalensis.\"" Biological Journal of the Linnean Society 108.4 (2013): 901-916.";-1;"geopy";
"Mastomys natalensis";-7.427;36.9307;"Msimba";"Tanzania";"morpho + PCR cytb";"high";"Colangelo, Paolo, et al. \""A mitochondrial phylogeographic scenario for the most widespread African rodent, Mastomys natalensis.\"" Biological Journal of the Linnean Society 108.4 (2013): 901-916.";0;"geopy";
"Mastomys natalensis";-6.8684;37.8138;"Morogoro";"Tanzania";"morpho + PCR cytb";"high";"Colangelo, Paolo, et al. \""A mitochondrial phylogeographic scenario for the most widespread African rodent, Mastomys natalensis.\"" Biological Journal of the Linnean Society 108.4 (2013): 901-916.";0;"geopy";
"Mastomys natalensis";-18.0766;27.4672;"unknown";"Zimbabwe";"morpho + PCR cytb";"high";"Colangelo, Paolo, et al. \""A mitochondrial phylogeographic scenario for the most widespread African rodent, Mastomys natalensis.\"" Biological Journal of the Linnean Society 108.4 (2013): 901-916.";0;"geopy";
"Mastomys natalensis";-15.3869;35.3326;"Zomba-Bwaila";"Malawi";"morpho + PCR cytb";"high";"Colangelo, Paolo, et al. \""A mitochondrial phylogeographic scenario for the most widespread African rodent, Mastomys natalensis.\"" Biological Journal of the Linnean Society 108.4 (2013): 901-916.";"NA";"Google found Zomba, Tanzania";
"Mastomys natalensis";-15.4572;35.2576;"Mpalanganga estate";"Malawi";"morpho + PCR cytb";"high";"Colangelo, Paolo, et al. \""A mitochondrial phylogeographic scenario for the most widespread African rodent, Mastomys natalensis.\"" Biological Journal of the Linnean Society 108.4 (2013): 901-916.";"NA";"Google found small Mpalanganga estate";
"Mastomys natalensis";-16.0251;35.5013;"Mulanje- Chitakali (Chipoka village)";"Malawi";"morpho + PCR cytb";"high";"Colangelo, Paolo, et al. \""A mitochondrial phylogeographic scenario for the most widespread African rodent, Mastomys natalensis.\"" Biological Journal of the Linnean Society 108.4 (2013): 901-916.";-1;"Google found place called Chitakali in Mulanje village";
"Mastomys natalensis";-16.72;35.1011;"Nsanje";"Malawi";"morpho + PCR cytb";"high";"Colangelo, Paolo, et al. \""A mitochondrial phylogeographic scenario for the most widespread African rodent, Mastomys natalensis.\"" Biological Journal of the Linnean Society 108.4 (2013): 901-916.";0;"geopy";
"Mastomys natalensis";-15.4572;35.2577;"Mpalanganga estate";"Malawi";"morpho + PCR cytb";"high";"Colangelo, Paolo, et al. \""A mitochondrial phylogeographic scenario for the most widespread African rodent, Mastomys natalensis.\"" Biological Journal of the Linnean Society 108.4 (2013): 901-916.";"NA";"Google found small Mpalanganga estate";
"Mastomys natalensis";-28.7779;32.0268;"Richard's Bay";"RSA";"morpho + PCR cytb";"high";"Colangelo, Paolo, et al. \""A mitochondrial phylogeographic scenario for the most widespread African rodent, Mastomys natalensis.\"" Biological Journal of the Linnean Society 108.4 (2013): 901-916.";-1;"Google region Richard’s Bay";
"Mastomys natalensis";-22.1155;29.9976;"Beitbridge";"RSA";"morpho + PCR cytb";"high";"Colangelo, Paolo, et al. \""A mitochondrial phylogeographic scenario for the most widespread African rodent, Mastomys natalensis.\"" Biological Journal of the Linnean Society 108.4 (2013): 901-916.";-1;"Googled region of Beitbridge, South Africa";
"Mastomys natalensis";-19.3606;23.0368;"Moremi Game Reserve";"Botswana";"morpho + PCR cytb";"high";"Colangelo, Paolo, et al. \""A mitochondrial phylogeographic scenario for the most widespread African rodent, Mastomys natalensis.\"" Biological Journal of the Linnean Society 108.4 (2013): 901-916.";-1;"Google found region of Moremi Game Reserve";
"Mastomys natalensis";-16.9333;35.2333;"Malema";"Malawi";"morpho + PCR cytb";"high";"Colangelo, Paolo, et al. \""A mitochondrial phylogeographic scenario for the most widespread African rodent, Mastomys natalensis.\"" Biological Journal of the Linnean Society 108.4 (2013): 901-916.";"NA";"http://earth-info.nga.mil/gns/html/namefiles.htm";
"Mastomys natalensis";-17.454;35.0792;"Mutarara";"Mozambique";"morpho + PCR cytb";"high";"Colangelo, Paolo, et al. \""A mitochondrial phylogeographic scenario for the most widespread African rodent, Mastomys natalensis.\"" Biological Journal of the Linnean Society 108.4 (2013): 901-916.";0;"geopy";
"Mastomys natalensis";-25.9662;32.5675;"Maputo";"Mozambique";"morpho + PCR cytb";"high";"Colangelo, Paolo, et al. \""A mitochondrial phylogeographic scenario for the most widespread African rodent, Mastomys natalensis.\"" Biological Journal of the Linnean Society 108.4 (2013): 901-916.";0;"geopy";
"Mastomys natalensis";-25.9541;30.5627;"Badplaas, Transvaal";"RSA";"morpho + PCR cytb";"high";"Colangelo, Paolo, et al. \""A mitochondrial phylogeographic scenario for the most widespread African rodent, Mastomys natalensis.\"" Biological Journal of the Linnean Society 108.4 (2013): 901-916.";1;"http://earth-info.nga.mil/gns/html/namefiles.htm";"found Badplaas, SA"
"Mastomys natalensis";-12.5511;26.1492;"Mumena";"Zambia";"morpho + PCR cytb";"high";"Colangelo, Paolo, et al. \""A mitochondrial phylogeographic scenario for the most widespread African rodent, Mastomys natalensis.\"" Biological Journal of the Linnean Society 108.4 (2013): 901-916.";0;"geopy";
"Mastomys natalensis";-22.9836;30.3553;"Mapate";"RSA";"morpho + PCR cytb";"high";"Colangelo, Paolo, et al. \""A mitochondrial phylogeographic scenario for the most widespread African rodent, Mastomys natalensis.\"" Biological Journal of the Linnean Society 108.4 (2013): 901-916.";0;"geopy";
"Mastomys natalensis";-7.8234;32.8949;"Chunya";"Tanzania";"morpho + PCR cytb";"high";"Colangelo, Paolo, et al. \""A mitochondrial phylogeographic scenario for the most widespread African rodent, Mastomys natalensis.\"" Biological Journal of the Linnean Society 108.4 (2013): 901-916.";0;"geopy";
"Mastomys natalensis";-10.7284;38.8056;"Masasi Town";"Tanzania";"morpho + PCR cytb";"high";"Colangelo, Paolo, et al. \""A mitochondrial phylogeographic scenario for the most widespread African rodent, Mastomys natalensis.\"" Biological Journal of the Linnean Society 108.4 (2013): 901-916.";"NA";"Bebif";
"Mastomys natalensis";-28.4104;29.426;"Natal";" Van Reenen";" Wyford Farm";"RSA";"morpho + PCR cytb";"high";"Colangelo, Paolo, et al. \""A mitochondrial phylogeographic scenario for the most widespread African rodent, Mastomys natalensis.\"" Biological Journal of the Linnean Society 108.4 (2013): 901-916.";-1
"Mastomys natalensis";-28.2198;31.9519;"Natal, Zululand, Hluhluwe Game Res.";"RSA";"morpho + PCR cytb";"high";"Colangelo, Paolo, et al. \""A mitochondrial phylogeographic scenario for the most widespread African rodent, Mastomys natalensis.\"" Biological Journal of the Linnean Society 108.4 (2013): 901-916.";-1;"Google";
"Mastomys natalensis";-25.7822;31.0475;"Barberton";"RSA";"morpho + PCR cytb";"high";"Colangelo, Paolo, et al. \""A mitochondrial phylogeographic scenario for the most widespread African rodent, Mastomys natalensis.\"" Biological Journal of the Linnean Society 108.4 (2013): 901-916.";0;"geopy";
"Mastomys natalensis";-17.8633;31.0345;"Mbare";"Zimbabwe";"morpho + PCR cytb";"high";"Colangelo, Paolo, et al. \""A mitochondrial phylogeographic scenario for the most widespread African rodent, Mastomys natalensis.\"" Biological Journal of the Linnean Society 108.4 (2013): 901-916.";0;"geopy";
"Mastomys natalensis";-17.6947;31.1089;"Hatcliffe";"Zimbabwe";"morpho + PCR cytb";"high";"Colangelo, Paolo, et al. \""A mitochondrial phylogeographic scenario for the most widespread African rodent, Mastomys natalensis.\"" Biological Journal of the Linnean Society 108.4 (2013): 901-916.";0;"geopy";
"Mastomys natalensis";-12.5925;25.5542;"Meheba";"Zambia";"morpho + PCR cytb";"high";"Colangelo, Paolo, et al. \""A mitochondrial phylogeographic scenario for the most widespread African rodent, Mastomys natalensis.\"" Biological Journal of the Linnean Society 108.4 (2013): 901-916.";-1;"geopy";
"Mastomys natalensis";6.128333333;-4.8925;"Ahouakro";"Cote d'Ivoire";"morpho + PCR cytb";"high";"Coulibaly-NGolo_Allali_2011";;;
"Mastomys natalensis";6.794166667;-7.295833333;"Blodi";"Cote d'Ivoire";"morpho + PCR cytb";"high";"Coulibaly-NGolo_Allali_2011";;;
"Mastomys natalensis";5.809166667;-5.498055556;"Gbagroube";"Cote d'Ivoire";"morpho + PCR cytb";"high";"Coulibaly-NGolo_Allali_2011";;;
"Mastomys natalensis";7.071111111;-3.128333333;"Kotokossou";"Cote d'Ivoire";"morpho + PCR cytb";"high";"Coulibaly-NGolo_Allali_2011";;;
"Mastomys natalensis";6.184166667;-6.07;"Menekre";"Cote d'Ivoire";"morpho + PCR cytb";"high";"Coulibaly-NGolo_Allali_2011";;;
"Mastomys natalensis";8.171388889;-2.610277778;"Sanguiebo";"Cote d'Ivoire";"morpho + PCR cytb";"high";"Coulibaly-NGolo_Allali_2011";;;
"Mastomys natalensis";6.745833333;-3.368333333;"Touzoukro";"Cote d'Ivoire";"morpho + PCR cytb";"high";"Coulibaly-NGolo_Allali_2011";;;
"Mastomys natalensis";10.25816667;-2.626;"Natorduori";"Ghana";"morpho + PCR cytb";"high";"Kronmann_Nimo-Paintsil_2013";;;
"Mastomys natalensis";9.547;-1.6325;"Bowena";"Ghana";"morpho + PCR cytb";"high";"Kronmann_Nimo-Paintsil_2013";;;
"Mastomys natalensis";10.395;-0.366;"Teanoba";"Ghana";"morpho + PCR cytb";"high";"Kronmann_Nimo-Paintsil_2013";;;
"Mastomys natalensis";8.347166667;-0.345833333;"Jirandogo";"Ghana";"morpho + PCR cytb";"high";"Kronmann_Nimo-Paintsil_2013";;;
"Mastomys natalensis";7.122666667;-2.327666667;"Amomaso";"Ghana";"morpho + PCR cytb";"high";"Kronmann_Nimo-Paintsil_2013";;;
"Mastomys natalensis";6.176;-1.792666667;"Ankaakur";"Ghana";"morpho + PCR cytb";"high";"Kronmann_Nimo-Paintsil_2013";;;
"Mastomys natalensis";6.4495;-0.851833333;"Ehiawenwu";"Ghana";"morpho + PCR cytb";"high";"Kronmann_Nimo-Paintsil_2013";;;
"Mastomys natalensis";10.61933333;-1.421833333;"Doninga";"Ghana";"morpho + PCR cytb";"high";"Kronmann_Nimo-Paintsil_2013";;;
"Mastomys natalensis";7.9685;-1.663166667;"Mangoase";"Ghana";"morpho + PCR cytb";"high";"Kronmann_Nimo-Paintsil_2013";;;
"Mastomys natalensis";7.674166667;-0.633;"Monkwo";"Ghana";"morpho + PCR cytb";"high";"Kronmann_Nimo-Paintsil_2013";;;
"Mastomys natalensis";8.883947222;2.671825;"Worogui";"Benin";"morpho + PCR cytb";"high";"Yadouleton_Agolinou_2019";;;
"Mastomys natalensis";8.973844444;2.750744444;"Yambouan";"Benin";"morpho + PCR cytb";"high";"Yadouleton_Agolinou_2019";;;
